id,IATA,Latitude,Longitude,Name,City,Country,Label,degree,weighted_degree,component
648,LAX,33.94250107,-118.4079971,Los Angeles International Airport,Los Angeles,United States,KLAX,110,111923,1
691,ORD,41.9786,-87.9048,Chicago O'Hare International Airport,Chicago,United States,KORD,172,107283,8
506,ATL,33.6367,-84.428101,Hartsfield Jackson Atlanta International Airport,Atlanta,United States,KATL,186,114944,7
575,DFW,32.896801,-97.038002,Dallas Fort Worth International Airport,Dallas-Fort Worth,United States,KDFW,171,102143,1
645,JFK,40.63980103,-73.77890015,John F Kennedy International Airport,New York,United States,KJFK,94,48323,1
591,EWR,40.692501068115234,-74.168701171875,Newark Liberty International Airport,Newark,United States,KEWR,113,65053,6
733,SFO,37.61899948120117,-122.375,San Francisco International Airport,San Francisco,United States,KSFO,83,75472,2
730,SEA,47.449001,-122.308998,Seattle Tacoma International Airport,Seattle,United States,KSEA,81,74942,3
554,CLT,35.2140007019043,-80.94309997558594,Charlotte Douglas International Airport,Charlotte,United States,KCLT,133,76459,3
571,DCA,38.8521,-77.037697,Ronald Reagan Washington National Airport,Washington,United States,KDCA,90,88348,2
157,YYZ,43.6772003174,-79.63059997559999,Lester B. Pearson International Airport,Toronto,Canada,CYYZ,102,50853,3
647,LAS,36.08010101,-115.1520004,McCarran International Airport,Las Vegas,United States,KLAS,127,73747,2
700,PHL,39.87189865112305,-75.24109649658203,Philadelphia International Airport,Philadelphia,United States,KPHL,104,62659,3
529,BOS,42.36429977,-71.00520325,General Edward Lawrence Logan International Airport,Boston,United States,KBOS,86,57700,5
627,IAH,29.984399795532227,-95.34140014648438,George Bush Intercontinental Houston Airport,Houston,United States,KIAH,145,59937,1
574,DEN,39.861698150635,-104.672996521,Denver International Airport,Denver,United States,KDEN,161,67411,1
128,YUL,45.4706001282,-73.7407989502,Montreal / Pierre Elliott Trudeau International Airport,Montreal,Canada,CYUL,68,54786,1
702,PHX,33.43429946899414,-112.01200103759766,Phoenix Sky Harbor International Airport,Phoenix,United States,KPHX,89,66596,4
682,MSP,44.882,-93.221802,Minneapolis-St Paul International/Wold-Chamberlain Airport,Minneapolis,United States,KMSP,124,62628,3
579,DTW,42.212398529052734,-83.35340118408203,Detroit Metropolitan Wayne County Airport,Detroit,United States,KDTW,123,52899,5
673,MIA,25.79319953918457,-80.29060363769531,Miami International Airport,Miami,United States,KMIA,96,44302,3
625,IAD,38.94449997,-77.45580292,Washington Dulles International Airport,Washington,United States,KIAD,93,38661,4
663,MCO,28.429399490356445,-81.30899810791016,Orlando International Airport,Orlando,United States,KMCO,94,56903,3
725,SAN,32.7336006165,-117.190002441,San Diego International Airport,San Diego,United States,KSAN,55,56481,3
736,SLC,40.78839874267578,-111.97799682617188,Salt Lake City International Airport,Salt Lake City,United States,KSLC,90,52788,3
697,PDX,45.58869934,-122.5979996,Portland International Airport,Portland,United States,KPDX,56,51454,5
651,LGA,40.77719879,-73.87259674,La Guardia Airport,New York,United States,KLGA,70,51832,10
597,FLL,26.072599,-80.152702,Fort Lauderdale Hollywood International Airport,Fort Lauderdale,United States,KFLL,87,49326,4
981,CUN,21.036500930800003,-86.8770980835,Cancún International Airport,Cancun,Mexico,MMUN,65,44535,5
132,YVR,49.193901062,-123.183998108,Vancouver International Airport,Vancouver,Canada,CYVR,58,29563,6
965,MEX,19.4363,-99.072098,Licenciado Benito Juarez International Airport,Mexico City,Mexico,MMMX,79,32772,5
741,TPA,27.975500106811523,-82.533203125,Tampa International Airport,Tampa,United States,KTPA,65,37969,9
1187,HNL,21.32062,-157.924228,Daniel K Inouye International Airport,Honolulu,United States,PHNL,29,28637,1
552,CLE,41.4117012024,-81.8498001099,Cleveland Hopkins International Airport,Cleveland,United States,KCLE,48,35109,1
718,RDU,35.87760162353516,-78.7874984741211,Raleigh Durham International Airport,Raleigh-durham,United States,KRDU,38,25601,2
708,PIT,40.49150085,-80.23290253,Pittsburgh International Airport,Pittsburgh,United States,KPIT,36,28775,1
674,MKE,42.94720077514648,-87.89659881591797,General Mitchell International Airport,Milwaukee,United States,KMKE,30,29644,1
539,BWI,39.1754,-76.668297,Baltimore/Washington International Thurgood Marshall Airport,Baltimore,United States,KBWI,70,25827,2
150,YYC,51.113899231,-114.019996643,Calgary International Airport,Calgary,Canada,CYYC,52,21231,4
737,SMF,38.69540023803711,-121.59100341796876,Sacramento International Airport,Sacramento,United States,KSMF,29,26910,7
683,MSY,29.99340057373047,-90.25800323486328,Louis Armstrong New Orleans International Airport,New Orleans,United States,KMSY,39,26372,3
514,BDL,41.9388999939,-72.68319702149999,Bradley International Airport,Windsor Locks,United States,KBDL,26,25886,1
510,AUS,30.194499969482425,-97.6698989868164,Austin Bergstrom International Airport,Austin,United States,KAUS,41,22448,2
739,STL,38.748697,-90.370003,St Louis Lambert International Airport,St. Louis,United States,KSTL,59,24855,2
661,MCI,39.2976,-94.713898,Kansas City International Airport,Kansas City,United States,KMCI,42,24726,9
726,SAT,29.533700942993164,-98.46980285644533,San Antonio International Airport,San Antonio,United States,KSAT,35,23508,3
724,RSW,26.53619956970215,-81.75520324707031,Southwest Florida International Airport,Fort Myers,United States,KRSW,30,22588,2
984,PTY,9.0713596344,-79.3834991455,Tocumen International Airport,Panama City,Panama,MPTO,38,17261,6
1417,SJU,18.4393997192,-66.0018005371,Luis Munoz Marin International Airport,San Juan,Puerto Rico,TJSJ,42,21213,8
565,CVG,39.0488014221,-84.6678009033,Cincinnati Northern Kentucky International Airport,Cincinnati,United States,KCVG,45,19341,3
735,SJC,37.362598,-121.929001,Norman Y. Mineta San Jose International Airport,San Jose,United States,KSJC,29,20380,5
53,YEG,53.3097000122,-113.580001831,Edmonton International Airport,Edmonton,Canada,CYEG,36,18989,1
665,MDW,41.785999,-87.752403,Chicago Midway International Airport,Chicago,United States,KMDW,75,19489,7
555,CMH,39.998001,-82.891899,John Glenn Columbus International Airport,Columbus,United States,KCMH,33,18425,1
94,YOW,45.3224983215332,-75.66919708251953,Ottawa Macdonald-Cartier International Airport,Ottawa,Canada,CYOW,24,15380,8
688,OKC,35.39310073852539,-97.60070037841795,Will Rogers World Airport,Oklahoma City,United States,KOKC,22,17051,1
618,HOU,29.64539909,-95.27890015,William P Hobby Airport,Houston,United States,KHOU,47,16354,2
929,PUJ,18.5673999786,-68.36340332030001,Punta Cana International Airport,Punta Cana,Dominican Republic,MDPC,26,12463,3
720,RIC,37.50519943237305,-77.3197021484375,Richmond International Airport,Richmond,United States,KRIC,19,15584,1
1005,NAS,25.0389995575,-77.46620178219999,Lynden Pindling International Airport,Nassau,Bahamas,MYNN,37,14803,5
689,OMA,41.3032,-95.894096,Eppley Airfield,Omaha,United States,KOMA,20,15146,2
632,IND,39.7173,-86.294403,Indianapolis International Airport,Indianapolis,United States,KIND,34,15050,3
687,OAK,37.721298,-122.221001,Metropolitan Oakland International Airport,Oakland,United States,KOAK,34,14765,2
952,GDL,20.52179908752441,-103.31099700927734,Don Miguel Hidalgo Y Costilla International Airport,Guadalajara,Mexico,MMGL,40,14681,7
611,GRR,42.88079834,-85.52279663,Gerald R. Ford International Airport,Grand Rapids,United States,KGRR,20,14152,3
1189,OGG,20.8986,-156.429993,Kahului Airport,Kahului,United States,PHOG,21,14095,1
488,ABQ,35.040199,-106.609001,Albuquerque International Sunport,Albuquerque,United States,KABQ,23,14007,7
695,PBI,26.68320083618164,-80.09559631347656,Palm Beach International Airport,West Palm Beach,United States,KPBI,23,13732,1
578,DSM,41.53400039672852,-93.66310119628906,Des Moines International Airport,Des Moines,United States,KDSM,17,13604,2
498,ALB,42.74829864501953,-73.80169677734375,Albany International Airport,Albany,United States,KALB,19,13161,7
986,SJO,9.993860244750977,-84.20880126953125,Juan Santamaria International Airport,San Jose,Costa Rica,MROC,24,12363,1
692,ORF,36.89459991455078,-76.20120239257812,Norfolk International Airport,Norfolk,United States,KORF,19,12979,1
723,ROC,43.118900299072266,-77.67240142822266,Greater Rochester International Airport,Rochester,United States,KROC,18,12812,7
2190,TUS,32.1161003112793,-110.94100189208984,Tucson International Airport,Tucson,United States,KTUS,16,12746,7
527,BNA,36.1245002746582,-86.6781997680664,Nashville International Airport,Nashville,United States,KBNA,46,12734,3
643,JAX,30.49410057067871,-81.68789672851562,Jacksonville International Airport,Jacksonville,United States,KJAX,26,12620,2
2191,TYS,35.81100082,-83.9940033,McGhee Tyson Airport,Knoxville,United States,KTYS,17,12023,10
1894,MBJ,18.503700256347656,-77.91339874267578,Sangster International Airport,Montego Bay,Jamaica,MKJS,24,11153,8
520,BHM,33.56290054,-86.75350189,Birmingham-Shuttlesworth International Airport,Birmingham,United States,KBHM,20,11457,2
548,CHS,32.89860153,-80.04049683,Charleston Air Force Base-International Airport,Charleston,United States,KCHS,19,11376,5
966,MTY,25.7784996033,-100.107002258,General Mariano Escobedo International Airport,Monterrey,Mexico,MMMY,32,11142,5
653,LIT,34.729400634799994,-92.2242965698,Bill & Hillary Clinton National Airport/Adams Field,Little Rock,United States,KLIT,17,10697,10
1161,ANC,61.17440032958984,-149.99600219726562,Ted Stevens Anchorage International Airport,Anchorage,United States,PANC,34,10511,4
2183,SAV,32.12760162,-81.20210266,Savannah Hilton Head International Airport,Savannah,United States,KSAV,13,10478,5
77,YHZ,44.8807983398,-63.5085983276,Halifax / Stanfield International Airport,Halifax,Canada,CYHZ,30,9356,8
2194,XNA,36.281898,-94.306801,Northwest Arkansas Regional Airport,Bentonville,United States,KXNA,14,9763,10
974,SJD,23.15180015563965,-109.72100067138672,Los Cabos International Airport,San Jose Del Cabo,Mexico,MMSD,22,9594,8
613,GSP,34.8956985474,-82.2189025879,Greenville Spartanburg International Airport,Greenville,United States,KGSP,19,9558,10
685,MYR,33.6796989441,-78.9282989502,Myrtle Beach International Airport,Myrtle Beach,United States,KMYR,22,9510,8
712,PSP,33.8297004699707,-116.50700378417967,Palm Springs International Airport,Palm Springs,United States,KPSP,17,9371,8
537,BUF,42.94049835,-78.73220062,Buffalo Niagara International Airport,Buffalo,United States,KBUF,19,9294,4
2067,SYR,43.11119842529297,-76.1063003540039,Syracuse Hancock International Airport,Syracuse,United States,KSYR,16,9245,3
738,SNA,33.67570114,-117.8679962,John Wayne Airport-Orange County Airport,Santa Ana,United States,KSNA,21,9191,2
971,PVR,20.680099487304688,-105.25399780273438,Licenciado Gustavo Díaz Ordaz International Airport,Puerto Vallarta,Mexico,MMPR,21,8789,2
987,SAL,13.4409,-89.055702,Monseñor Óscar Arnulfo Romero International Airport,San Salvador,El Salvador,MSLP,24,7692,2
2189,TUL,36.19839859008789,-95.88809967041016,Tulsa International Airport,Tulsa,United States,KTUL,18,8560,3
680,MSN,43.13990020751953,-89.3375015258789,Dane County Regional Truax Field,Madison,United States,KMSN,11,8378,1
667,MEM,35.04240036010742,-89.97669982910156,Memphis International Airport,Memphis,United States,KMEM,32,8197,1
722,RNO,39.49909973144531,-119.76799774169922,Reno Tahoe International Airport,Reno,United States,KRNO,14,7878,8
569,DAY,39.90240097045898,-84.21939849853516,James M Cox Dayton International Airport,Dayton,United States,KDAY,15,7676,1
714,PVD,41.732601,-71.420403,Theodore Francis Green State Airport,Providence,United States,KPVD,19,7543,2
612,GSO,36.097801208496094,-79.93730163574219,Piedmont Triad International Airport,Greensboro,United States,KGSO,14,7315,1
1422,AUA,12.5014,-70.015198,Queen Beatrix International Airport,Oranjestad,Aruba,TNCA,16,6690,3
528,BOI,43.5644,-116.223,Boise Air Terminal/Gowen Field,Boise,United States,KBOI,16,6627,1
541,CAE,33.93880081176758,-81.11949920654297,Columbia Metropolitan Airport,Columbia,United States,KCAE,10,6611,1
1184,LIH,21.97599983215332,-159.33900451660156,Lihue Airport,Lihue,United States,PHLI,11,6599,4
134,YWG,49.9099998474,-97.2398986816,Winnipeg / James Armstrong Richardson International Airport,Winnipeg,Canada,CYWG,22,6565,1
1183,KOA,19.738783,-156.045603,Ellison Onizuka Kona International At Keahole Airport,Kona,United States,PHKO,11,6240,4
671,MHT,42.932598,-71.435699,Manchester-Boston Regional Airport,Manchester NH,United States,KMHT,14,6061,7
559,COS,38.805801,-104.700996,City of Colorado Springs Municipal Airport,Colorado Springs,United States,KCOS,11,5950,7
650,LEX,38.0364990234375,-84.60590362548828,Blue Grass Airport,Lexington KY,United States,KLEX,13,5941,1
930,SDQ,18.42970085144,-69.668899536133,Las Américas International Airport,Santo Domingo,Dominican Republic,MDSD,22,4212,5
932,GUA,14.5833,-90.527496,La Aurora Airport,Guatemala City,Guatemala,MGGT,17,5240,1
690,ONT,34.055999755859375,-117.60099792480467,Ontario International Airport,Ontario,United States,KONT,15,5614,3
729,SDF,38.1744,-85.736,Louisville International Standiford Field,Louisville,United States,KSDF,23,5570,3
978,TIJ,32.541099548339844,-116.97000122070312,General Abelardo L. Rodríguez International Airport,Tijuana,Mexico,MMTJ,30,5393,5
542,CAK,40.91609954833984,-81.44219970703125,Akron Canton Regional Airport,Akron,United States,KCAK,11,5414,3
102,YQB,46.7911,-71.393303,Quebec Jean Lesage International Airport,Quebec,Canada,CYQB,19,4992,8
536,BTV,44.4719009399,-73.15329742429999,Burlington International Airport,Burlington,United States,KBTV,9,5250,7
538,BUR,34.20069885253906,-118.35900115966795,Bob Hope Airport,Burbank,United States,KBUR,12,5102,3
586,ELP,31.80719948,-106.3779984,El Paso International Airport,El Paso,United States,KELP,13,5018,7
992,HAV,22.989200592041016,-82.40910339355469,José Martí International Airport,Havana,Cuba,MUHA,15,1380,5
568,DAL,32.847099,-96.851799,Dallas Love Field,Dallas,United States,KDAL,23,4864,2
546,CHA,35.035301208496094,-85.20379638671875,Lovell Field,Chattanooga,United States,KCHA,8,4812,2
652,LGB,33.81769943,-118.1520004,Long Beach /Daugherty Field/ Airport,Long Beach,United States,KLGB,12,4798,3
602,GEG,47.61989974975586,-117.53399658203124,Spokane International Airport,Spokane,United States,KGEG,10,4704,1
153,YYJ,48.646900177,-123.426002502,Victoria International Airport,Victoria,Canada,CYYJ,8,4532,3
2182,PWM,43.64619827,-70.30930328,Portland International Jetport Airport,Portland,United States,KPWM,12,4527,7
622,HSV,34.637199401855,-86.775100708008,Huntsville International Carl T Jones Field,Huntsville,United States,KHSV,9,4517,1
995,GCM,19.2928009033,-81.3576965332,Owen Roberts International Airport,Georgetown,Cayman Islands,MWCR,19,4482,3
927,PLS,21.77359962463379,-72.26589965820312,Providenciales Airport,Providenciales,Turks and Caicos Islands,MBPV,21,4454,5
88,YLW,49.9561004639,-119.377998352,Kelowna International Airport,Kelowna,Canada,CYLW,11,4123,3
664,MDT,40.1935005188,-76.7633972168,Harrisburg International Airport,Harrisburg,United States,KMDT,12,4094,1
594,FAT,36.77619934082031,-119.71800231933594,Fresno Yosemite International Airport,Fresno,United States,KFAT,11,4029,1
619,HPN,41.06700134277344,-73.70760345458984,Westchester County Airport,White Plains,United States,KHPN,16,3959,9
598,FNT,42.96540069580078,-83.74359893798828,Bishop International Airport,Flint,United States,KFNT,7,3951,7
2186,SRQ,27.39539909362793,-82.55439758300781,Sarasota Bradenton International Airport,Sarasota,United States,KSRQ,6,3945,10
593,FAR,46.92070007324219,-96.81580352783205,Hector International Airport,Fargo,United States,KFAR,9,3863,1
1412,STT,18.337299346923828,-64.97339630126953,Cyril E. King Airport,St. Thomas,Virgin Islands,TIST,18,3853,1
155,YYT,47.618598938,-52.7518997192,St. John's International Airport,St. John's,Canada,CYYT,12,3644,8
642,JAN,32.3111991882,-90.0758972168,Jackson-Medgar Wiley Evers International Airport,Jackson,United States,KJAN,8,3525,2
127,YTZ,43.627499,-79.396202,Billy Bishop Toronto City Centre Airport,Toronto,Canada,CYTZ,13,3251,1
549,CID,41.88470077514648,-91.71080017089844,The Eastern Iowa Airport,Cedar Rapids,United States,KCID,11,3204,1
600,FWA,40.97850037,-85.19509888,Fort Wayne International Airport,Fort Wayne,United States,KFWA,10,3037,1
588,EUG,44.12459945678711,-123.21199798583984,Mahlon Sweet Field,Eugene,United States,KEUG,9,3004,1
727,SBA,34.42620087,-119.8399963,Santa Barbara Municipal Airport,Santa Barbara,United States,KSBA,6,2996,3
628,ICT,37.649899,-97.433098,Wichita Eisenhower National Airport,Wichita,United States,KICT,12,2949,1
985,LIR,10.5933,-85.544403,Daniel Oduber Quiros International Airport,Liberia,Costa Rica,MRLB,13,2937,1
958,BJX,20.9935,-101.481003,Del Bajío International Airport,Del Bajio,Mexico,MMLO,10,2914,1
676,MLI,41.44850158691406,-90.50749969482422,Quad City International Airport,Moline,United States,KMLI,10,2881,1
709,PNS,30.473400115967,-87.186599731445,Pensacola Regional Airport,Pensacola,United States,KPNS,11,2830,2
703,PIA,40.664199829100006,-89.6932983398,General Wayne A. Downing Peoria International Airport,Peoria,United States,KPIA,10,2715,1
710,PSC,46.26470184326172,-119.11900329589844,Tri Cities Airport,Pasco,United States,KPSC,8,2459,2
740,TLH,30.396499633789062,-84.35030364990234,Tallahassee Regional Airport,Tallahassee,United States,KTLH,7,2375,2
146,YXU,43.035599,-81.1539,London Airport,London,Canada,CYXU,5,2368,8
2068,POS,10.595399856567385,-61.33720016479492,Piarco International Airport,Port-of-spain,Trinidad and Tobago,TTPP,15,2144,11
507,ATW,44.2580986023,-88.5190963745,Appleton International Airport,Appleton,United States,KATW,7,2320,7
511,AVL,35.43619918823242,-82.54180145263672,Asheville Regional Airport,Asheville,United States,KAVL,8,2313,4
599,FSD,43.5820007324,-96.741897583,Joe Foss Field Airport,Sioux Falls,United States,KFSD,9,2306,7
592,EYW,24.55610084533692,-81.75959777832031,Key West International Airport,Key West,United States,KEYW,8,2192,10
89,YMM,56.653301239,-111.222000122,Fort McMurray Airport,Fort Mcmurray,Canada,CYMM,7,2179,3
512,AVP,41.3385009766,-75.72339630130001,Wilkes Barre Scranton International Airport,Scranton,United States,KAVP,5,2148,7
1002,FPO,26.5587005615,-78.695602417,Grand Bahama International Airport,Freeport,Bahamas,MYGF,10,2140,6
524,BLI,48.79280090332031,-122.53800201416016,Bellingham International Airport,Bellingham,United States,KBLI,9,2045,5
679,MRY,36.58700180053711,-121.84300231933594,Monterey Peninsula Airport,Monterey,United States,KMRY,6,2041,2
717,RDM,44.2541008,-121.1500015,Roberts Field,Redmond-Bend,United States,KRDM,6,2024,1
977,TGZ,16.5636005402,-93.0224990845,Angel Albino Corzo International Airport,Tuxtla Gutierrez,Mexico,MMTG,5,1986,7
934,SAP,15.4526,-87.923599,Ramón Villeda Morales International Airport,San Pedro Sula,Honduras,MHLM,13,1977,1
669,MFR,42.37419891357422,-122.8730010986328,Rogue Valley International Medford Airport,Medford,United States,KMFR,7,1921,1
608,GRB,44.48509979248047,-88.12960052490234,Austin Straubel International Airport,Green Bay,United States,KGRB,4,1903,7
1426,SXM,18.0410003662,-63.1088981628,Princess Juliana International Airport,Philipsburg,Netherlands Antilles,TNCM,30,1840,1
939,AGU,21.705601,-102.318001,Jesús Terán Paredo International Airport,Aguascalientes,Mexico,MMAS,7,1895,1
564,CRW,38.37310028076172,-81.59320068359375,Yeager Airport,Charleston,United States,KCRW,8,1856,1
2195,BZE,17.539100646972656,-88.30819702148438,Philip S. W. Goldson International Airport,Belize City,Belize,MZBZ,11,1675,1
630,ILM,34.270599365234375,-77.90260314941406,Wilmington International Airport,Wilmington,United States,KILM,5,1848,10
2177,MGM,32.30059814,-86.39399719,Montgomery Regional (Dannelly Field) Airport,MONTGOMERY,United States,KMGM,3,1842,1
2197,LBB,33.663601,-101.822998,Lubbock Preston Smith International Airport,Lubbock,United States,KLBB,8,1831,2
947,CUU,28.702899932900003,-105.964996338,General Roberto Fierro Villalobos International Airport,Chihuahua,Mexico,MMCU,9,1811,5
2257,VER,19.1459007263,-96.1873016357,General Heriberto Jara International Airport,Vera Cruz,Mexico,MMVR,8,1803,7
2193,VPS,30.4832,-86.525398,Destin-Ft Walton Beach Airport,Valparaiso,United States,KVPS,5,1756,2
496,AGS,33.36989974975586,-81.9645004272461,Augusta Regional At Bush Field,Bush Field,United States,KAGS,3,1756,2
2185,SHV,32.446602,-93.8256,Shreveport Regional Airport,Shreveport,United States,KSHV,5,1754,2
989,PAP,18.57999992370605,-72.2925033569336,Toussaint Louverture International Airport,Port-au-prince,Haiti,MTPP,12,1716,1
2069,BDA,32.36399841308594,-64.67870330810547,L.F. Wade International International Airport,Bermuda,Bermuda,TXKF,7,1666,5
968,OAX,16.9999008179,-96.726600647,Xoxocotlán International Airport,Oaxaca,Mexico,MMOX,5,1689,5
604,GJT,39.1223983765,-108.527000427,Grand Junction Regional Airport,Grand Junction,United States,KGJT,6,1615,1
982,VSA,17.996999740600586,-92.81739807128906,Carlos Rovirosa Pérez International Airport,Villahermosa,Mexico,MMVA,7,1611,5
677,MOB,30.691200256348,-88.242797851562,Mobile Regional Airport,Mobile,United States,KMOB,5,1611,8
715,RAP,44.0452995300293,-103.05699920654295,Rapid City Regional Airport,Rapid City,United States,KRAP,7,1608,1
139,YXE,52.17079925537109,-106.6999969482422,Saskatoon John G. Diefenbaker International Airport,Saskatoon,Canada,CYXE,9,1604,4
638,ISP,40.79520035,-73.10019684,Long Island Mac Arthur Airport,Islip,United States,KISP,8,1591,4
486,ABE,40.652099609375,-75.44080352783203,Lehigh Valley International Airport,Allentown,United States,KABE,9,1575,8
521,BIL,45.80770111083984,-108.54299926757812,Billings Logan International Airport,Billings,United States,KBIL,12,1574,2
526,BMI,40.47710037,-88.91590118,Central Illinois Regional Airport at Bloomington-Normal,Bloomington,United States,KBMI,8,1565,1
937,KIN,17.935699462890625,-76.7874984741211,Norman Manley International Airport,Kingston,Jamaica,MKJP,16,1477,3
2264,STS,38.50899887,-122.8130035,Charles M. Schulz Sonoma County Airport,Santa Rosa,United States,KSTS,4,1532,3
1878,SBN,41.70869827270508,-86.31729888916016,South Bend Regional Airport,South Bend,United States,KSBN,9,1509,2
2184,SGF,37.24570084,-93.38860321,Springfield Branson National Airport,Springfield,United States,KSGF,9,1500,2
983,MGA,12.14150047302246,-86.16819763183594,Augusto C. Sandino (Managua) International Airport,Managua,Nicaragua,MNMG,8,1450,1
535,BTR,30.533199,-91.149597,Baton Rouge Metropolitan Airport,Baton Rouge,United States,KBTR,4,1444,3
1405,BGI,13.0746002197,-59.4925003052,Sir Grantley Adams International Airport,Bridgetown,Barbados,TBPB,12,1281,1
513,AZO,42.234901428222656,-85.5521011352539,Kalamazoo Battle Creek International Airport,Kalamazoo,United States,KAZO,4,1402,7
936,TGU,14.06089973449707,-87.21720123291016,Toncontín International Airport,Tegucigalpa,Honduras,MHTG,10,1400,1
1877,ROA,37.3255,-79.975403,Roanoke–Blacksburg Regional Airport,Roanoke VA,United States,KROA,9,1400,8
491,ACK,41.25310135,-70.06020355,Nantucket Memorial Airport,Nantucket,United States,KACK,6,1386,5
660,MBS,43.532901763916016,-84.07959747314453,MBS International Airport,Saginaw,United States,KMBS,4,1369,7
975,SLP,22.254299163800003,-100.930999756,Ponciano Arriaga International Airport,San Luis Potosi,Mexico,MMSP,5,1362,5
1404,ANU,17.1367,-61.792702,V.C. Bird International Airport,Antigua,Antigua and Barbuda,TAPA,17,1167,1
953,HMO,29.095899581900003,-111.047996521,General Ignacio P. Garcia International Airport,Hermosillo,Mexico,MMHO,9,1240,5
972,QRO,20.6173,-100.185997,Querétaro Intercontinental Airport,Queretaro,Mexico,MMQT,5,1231,1
2267,ITO,19.721399307250977,-155.04800415039062,Hilo International Airport,Hilo,United States,PHTO,3,1229,1
582,ECP,30.357106,-85.795414,Northwest Florida Beaches International Airport,Panama City,United States,KECP,5,1225,2
540,BZN,45.77750015,-111.1529999,Gallatin Field,Bozeman,United States,KBZN,7,1215,8
681,MSO,46.91630173,-114.0910034,Missoula International Airport,Missoula,United States,KMSO,7,1202,5
646,LAN,42.77870178222656,-84.58740234375,Capital City Airport,Lansing,United States,KLAN,5,1193,7
547,CHO,38.13859939575195,-78.4529037475586,Charlottesville Albemarle Airport,Charlottesville VA,United States,KCHO,6,1184,3
931,STI,19.406099319458008,-70.60469818115234,Cibao International Airport,Santiago,Dominican Republic,MDST,8,1165,5
107,YQM,46.11220169067383,-64.67859649658203,Greater Moncton International Airport,Moncton,Canada,CYQM,7,1146,3
556,CMI,40.03919983,-88.27809906,University of Illinois Willard Airport,Champaign,United States,KCMI,2,1139,1
109,YQR,50.43190002441406,-104.66600036621094,Regina International Airport,Regina,Canada,CYQR,7,1124,4
518,BGR,44.80739974975586,-68.8281021118164,Bangor International Airport,Bangor,United States,KBGR,6,1108,5
938,ACA,16.757099151611328,-99.75399780273438,General Juan N Alvarez International Airport,Acapulco,Mexico,MMAA,5,1089,5
668,MFE,26.17580032,-98.23860168,Mc Allen Miller International Airport,Mcallen,United States,KMFE,4,1081,2
1424,CUR,12.1889,-68.959801,Hato International Airport,Willemstad,Netherlands Antilles,TNCC,8,838,12
2216,MAF,31.9424991607666,-102.2020034790039,Midland International Airport,Midland,United States,KMAF,7,969,1
502,AMA,35.219398,-101.706001,Rick Husband Amarillo International Airport,Amarillo,United States,KAMA,6,960,1
1137,FAI,64.81510162,-147.8560028,Fairbanks International Airport,Fairbanks,United States,PAFA,18,956,4
699,PHF,37.13190079,-76.49299622,Newport News Williamsburg International Airport,Newport News,United States,KPHF,4,955,1
996,MHH,26.5114,-77.083503,Leonard M Thompson International Airport,Marsh Harbor,Bahamas,MYAM,6,952,3
963,MLM,19.849899292,-101.025001526,General Francisco J. Mujica International Airport,Morelia,Mexico,MMMM,7,946,1
961,MID,20.9370002747,-89.657699585,Licenciado Manuel Crescencio Rejon Int Airport,Merida,Mexico,MMMD,8,943,5
1421,UVF,13.7332,-60.952599,Hewanorra International Airport,Hewandorra,Saint Lucia,TLPL,8,814,3
576,DLH,46.8420982361,-92.1936035156,Duluth International Airport,Duluth,United States,KDLH,3,897,8
110,YQT,48.37189865112305,-89.32389831542969,Thunder Bay Airport,Thunder Bay,Canada,CYQT,11,889,3
620,HRL,26.228500366210938,-97.65440368652344,Valley International Airport,Harlingen,United States,KHRL,7,889,2
2034,YZF,62.462799072265625,-114.44000244140624,Yellowknife Airport,Yellowknife,Canada,CYZF,15,861,1
562,CRP,27.77039909362793,-97.5011978149414,Corpus Christi International Airport,Corpus Christi,United States,KCRP,4,860,1
2032,YZV,50.22330093383789,-66.2656021118164,Sept-Îles Airport,Sept-iles,Canada,CYZV,10,858,1
607,GPT,30.40730094909668,-89.07009887695312,Gulfport Biloxi International Airport,Gulfport,United States,KGPT,4,857,3
516,BFL,35.43360138,-119.0569992,Meadows Field,Bakersfield,United States,KBFL,5,854,1
976,TRC,25.5683002472,-103.411003113,Francisco Sarabia International Airport,Torreon,Mexico,MMTC,6,844,5
610,GRK,31.067199707,-97.8289031982,Robert Gray  Army Air Field Airport,Killeen,United States,KGRK,3,833,7
1427,TAB,11.149700164794922,-60.83219909667969,Tobago-Crown Point Airport,Scarborough,Trinidad and Tobago,TTCP,4,804,11
2246,SWF,41.50410079956055,-74.10479736328125,Stewart International Airport,Newburgh,United States,KSWF,5,803,5
2247,TVC,44.74140167236328,-85.58219909667969,Cherry Capital Airport,Traverse City,United States,KTVC,3,797,3
1154,JNU,58.35499954223633,-134.5760040283203,Juneau International Airport,Juneau,United States,PAJN,10,785,3
1413,STX,17.701900482177734,-64.79859924316406,Henry E Rohlsen Airport,St. Croix Island,Virgin Islands,TISX,5,781,8
949,CZM,20.52239990234375,-86.92559814453125,Cozumel International Airport,Cozumel,Mexico,MMCZ,8,772,7
1185,MKK,21.15290069580078,-157.0959930419922,Molokai Airport,Molokai,United States,PHMK,3,757,1
566,CWA,44.7775993347,-89.6668014526,Central Wisconsin Airport,Wassau,United States,KCWA,3,746,5
108,YQQ,49.71080017089844,-124.88700103759766,Comox Airport,Comox,Canada,CYQQ,4,730,1
2173,EWN,35.0730018616,-77.04290008539999,Coastal Carolina Regional Airport,New Bern,United States,KEWN,2,724,7
979,TAM,22.2964000702,-97.8658981323,General Francisco Javier Mina International Airport,Tampico,Mexico,MMTM,4,704,5
1410,PTP,16.265301,-61.531799,Pointe-à-Pitre Le Raizet,Pointe-a-pitre,Guadeloupe,TFFR,11,536,13
577,DRO,37.1515007019,-107.753997803,Durango La Plata County Airport,Durango,United States,KDRO,3,696,1
589,EVV,38.0369987488,-87.5324020386,Evansville Regional Airport,Evansville,United States,KEVV,4,695,5
47,YCD,49.0549702249,-123.869862556,Nanaimo Airport,Nanaimo,Canada,CYCD,2,687,4
50,YDF,49.21080017089844,-57.39139938354492,Deer Lake Airport,Deer Lake,Canada,CYDF,5,673,3
2178,MLB,28.10280036926269,-80.64530181884766,Melbourne International Airport,Melbourne,United States,KMLB,2,669,3
942,CUL,24.7644996643,-107.474998474,Bachigualato Federal International Airport,Culiacan,Mexico,MMCL,7,667,5
2236,LRD,27.543800354003903,-99.46160125732422,Laredo International Airport,Laredo,United States,KLRD,3,646,2
614,GTF,47.48199844,-111.3710022,Great Falls International Airport,Great Falls,United States,KGTF,7,636,1
495,AEX,31.32740020751953,-92.54979705810548,Alexandria International Airport,Alexandria,United States,KAEX,3,627,1
2235,LCH,30.126100540161133,-93.22329711914062,Lake Charles Regional Airport,Lake Charles,United States,KLCH,2,611,1
2248,SCE,40.8493003845,-77.84870147710001,University Park Airport,State College Pennsylvania,United States,KUNV,4,605,8
1123,BET,60.77980042,-161.8379974,Bethel Airport,Bethel,United States,PABE,20,594,4
998,GGT,23.5625991821,-75.8779983521,Exuma International Airport,Great Exuma,Bahamas,MYEF,5,589,5
629,IDA,43.514599,-112.070999,Idaho Falls Regional Airport,Idaho Falls,United States,KIDA,4,588,1
1411,GND,12.004199981689451,-61.78620147705078,Point Salines International Airport,Point Salines,Grenada,TGPY,6,586,1
505,ASE,39.22320175,-106.8690033,Aspen-Pitkin Co/Sardy Field,Aspen,United States,KASE,2,587,1
605,GNV,29.6900997162,-82.2717971802,Gainesville Regional Airport,Gainesville,United States,KGNV,5,582,7
606,FCA,48.31050109863281,-114.25599670410156,Glacier Park International Airport,Kalispell,United States,KGPI,5,577,1
2258,ZIH,17.601600647,-101.460998535,Ixtapa Zihuatanejo International Airport,Zihuatanejo,Mexico,MMZH,5,574,5
595,FAY,34.9911994934082,-78.88030242919922,Fayetteville Regional Grannis Field,Fayetteville,United States,KFAY,4,559,3
2249,BQN,18.49489974975586,-67.12940216064453,Rafael Hernandez Airport,Aguadilla,Puerto Rico,TJBQ,4,555,1
522,BIS,46.77270126342773,-100.74600219726562,Bismarck Municipal Airport,Bismarck,United States,KBIS,5,549,2
105,YQG,42.27560043334961,-82.95559692382812,Windsor Airport,Windsor,Canada,CYQG,3,547,4
1157,KTN,55.35559845,-131.7140045,Ketchikan International Airport,Ketchikan,United States,PAKT,7,526,3
1423,BON,12.130999565124512,-68.26850128173828,Flamingo International Airport,Kralendijk,Netherlands Antilles,TNCB,5,465,12
1407,FDF,14.590999603271484,-61.00320053100586,Martinique Aimé Césaire International Airport,Fort-de-france,Martinique,TFFF,7,341,13
145,YXS,53.8894004822,-122.679000854,Prince George Airport,Prince George,Canada,CYXS,8,520,6
2176,LFT,30.20529938,-91.98760223,Lafayette Regional Airport,Lafayette,United States,KLFT,3,508,1
967,MZT,23.1613998413,-106.26599884,General Rafael Buelna International Airport,Mazatlan,Mexico,MMMZ,8,506,5
73,YHM,43.1735992432,-79.93499755859999,John C. Munro Hamilton International Airport,Hamilton,Canada,CYHM,4,504,1
151,YYG,46.290000915527344,-63.12110137939453,Charlottetown Airport,Charlottetown,Canada,CYYG,3,500,3
2187,TRI,36.475201,-82.407401,Tri-Cities Regional TN/VA Airport,BRISTOL,United States,KTRI,4,499,7
946,CJS,31.63610076904297,-106.4290008544922,Abraham González International Airport,Ciudad Juarez,Mexico,MMCS,5,494,5
2050,POP,19.75790023803711,-70.56999969482422,Gregorio Luperon International Airport,Puerto Plata,Dominican Republic,MDPP,7,442,3
58,YFC,45.868900299072266,-66.53720092773438,Fredericton Airport,Fredericton,Canada,CYFC,4,482,3
111,YQU,55.1796989441,-118.885002136,Grande Prairie Airport,Grande Prairie,Canada,CYQU,2,478,4
969,PBC,19.1581001282,-98.3713989258,Hermanos Serdán International Airport,Puebla,Mexico,MMPB,6,472,1
136,YWK,52.92190170288086,-66.8644027709961,Wabush Airport,Wabush,Canada,CYWK,10,472,1
2532,EIS,18.444799423217773,-64.54299926757812,Terrance B. Lettsome International Airport,Tortola,British Virgin Islands,TUPJ,4,467,8
1136,ENA,60.57310104370117,-151.2449951171875,Kenai Municipal Airport,Kenai,United States,PAEN,1,460,4
1165,OME,64.51219940185547,-165.44500732421875,Nome Airport,Nome,United States,PAOM,15,455,4
561,CPR,42.908001,-106.463997,Casper-Natrona County International Airport,Casper,United States,KCPR,3,450,2
113,YQY,46.1614,-60.047798,Sydney / J.A. Douglas McCurdy Airport,Sydney,Canada,CYQY,2,446,3
148,YXY,60.7095985413,-135.067001343,Whitehorse / Erik Nielsen International Airport,Whitehorse,Canada,CYXY,5,443,6
603,GFK,47.949299,-97.176102,Grand Forks International Airport,Grand Forks,United States,KGFK,4,429,2
973,REX,26.0089,-98.2285,General Lucio Blanco International Airport,Reynosa,Mexico,MMRX,4,427,7
79,YKA,50.7022018433,-120.444000244,Kamloops Airport,Kamloops,Canada,CYKA,3,425,6
728,SBP,35.2368011475,-120.641998291,San Luis County Regional Airport,San Luis Obispo,United States,KSBP,3,414,4
935,RTB,16.316799,-86.523003,Juan Manuel Galvez International Airport,Roatan,Honduras,MHRO,10,406,1
119,YSB,46.625,-80.79889678955078,Sudbury Airport,Sudbury,Canada,CYSB,6,400,3
494,ACY,39.45759963989258,-74.57720184326172,Atlantic City International Airport,Atlantic City,United States,KACY,8,399,4
734,SGU,37.036389,-113.510306,St George Municipal Airport,Saint George,United States,KSGU,2,398,1
2215,SBY,38.34049987792969,-75.51029968261719,Salisbury Ocean City Wicomico Regional Airport,Salisbury,United States,KSBY,2,389,3
2212,HHH,32.2243995667,-80.6975021362,Hilton Head Airport,Hilton Head Island,United States,KHXD,2,379,2
959,LAP,24.0727005005,-110.361999512,Manuel Márquez de León International Airport,La Paz,Mexico,MMLP,6,375,5
2204,MVY,41.3931007385,-70.6143035889,Martha's Vineyard Airport,Vineyard Haven MA,United States,KMVY,4,374,5
585,ELM,42.1599006652832,-76.8916015625,Elmira Corning Regional Airport,Elmira,United States,KELM,4,371,8
1166,OTZ,66.88469696,-162.598999,Ralph Wien Memorial Airport,Kotzebue,United States,PAOT,13,365,4
2171,DAB,29.179899,-81.058098,Daytona Beach International Airport,Daytona Beach,United States,KDAB,2,364,7
1182,JHM,20.962900161743164,-156.67300415039062,Kapalua Airport,Lahania-kapalua,United States,PHJH,2,357,1
2273,RST,43.90829849243164,-92.5,Rochester International Airport,Rochester,United States,KRST,2,357,8
616,HLN,46.6068000793457,-111.98300170898438,Helena Regional Airport,Helena,United States,KHLN,5,354,1
2181,OAJ,34.8292007446,-77.61209869380001,Albert J Ellis Airport,Jacksonville NC,United States,KOAJ,2,352,3
623,HTS,38.36669922,-82.55799866,Tri-State/Milton J. Ferguson Field,Huntington,United States,KHTS,4,350,8
2165,HYA,41.66930008,-70.28040314,Barnstable Municipal Boardman Polando Field,Barnstable,United States,KHYA,3,349,5
1999,VRA,23.034400939941406,-81.435302734375,Juan Gualberto Gomez International Airport,Varadero,Cuba,MUVR,5,311,3
678,MOT,48.2593994140625,-101.27999877929688,Minot International Airport,Minot,United States,KMOT,4,345,3
2229,SAF,35.617099762,-106.088996887,Santa Fe Municipal Airport,Santa Fe,United States,KSAF,3,345,1
126,YTS,48.5696983337,-81.376701355,Timmins/Victor M. Power,Timmins,Canada,CYTS,5,342,3
2028,YVO,48.0532989502,-77.7827987671,Val-d'Or Airport,Val D'or,Canada,CYVO,5,339,1
2179,MLU,32.51089859008789,-92.0376968383789,Monroe Regional Airport,Monroe,United States,KMLU,3,337,7
118,YRT,62.8114013672,-92.1157989502,Rankin Inlet Airport,Rankin Inlet,Canada,CYRT,7,314,1
138,YXC,49.610801696777,-115.78199768066,Cranbrook/Canadian Rockies International Airport,Cranbrook,Canada,CYXC,3,311,6
560,COU,38.81809997558594,-92.21959686279295,Columbia Regional Airport,Columbia,United States,KCOU,2,304,8
639,ITH,42.49100112915039,-76.4583969116211,Ithaca Tompkins Regional Airport,Ithaca,United States,KITH,3,302,3
147,YXX,49.025299072265625,-122.36100006103516,Abbotsford Airport,Abbotsford,Canada,CYXX,2,300,1
1418,SKB,17.311199188232422,-62.71870040893555,Robert L. Bradshaw International Airport,Basse Terre,Saint Kitts and Nevis,TKPK,6,296,3
1125,BRW,71.285402,-156.766008,Wiley Post Will Rogers Memorial Airport,Barrow,United States,PABR,7,290,4
104,YQF,52.18220138549805,-113.8939971923828,Red Deer Regional Airport,Red Deer Industrial,Canada,CYQF,3,289,3
120,YSJ,45.31610107421875,-65.89029693603516,Saint John Airport,St. John,Canada,CYSJ,3,286,1
533,BRO,25.90679931640625,-97.4259033203125,Brownsville South Padre Island International Airport,Brownsville,United States,KBRO,2,284,1
144,YXL,50.11389923095703,-91.9052963256836,Sioux Lookout Airport,Sioux Lookout,Canada,CYXL,17,281,3
140,YXJ,56.23809814453125,-120.73999786376952,Fort St John Airport,Fort Saint John,Canada,CYXJ,5,272,6
1420,SLU,14.0202,-60.992901,George F. L. Charles Airport,Castries,Saint Lucia,TLPC,6,268,1
112,YQX,48.9369010925293,-54.56809997558594,Gander International Airport,Gander,Canada,CYQX,3,263,8
2174,FSM,35.33660125732422,-94.36740112304688,Fort Smith Regional Airport,Fort Smith,United States,KFSM,2,261,1
487,ABI,32.4113006592,-99.6819000244,Abilene Regional Airport,Abilene,United States,KABI,1,258,1
999,ELH,25.474899292,-76.6835021973,North Eleuthera Airport,North Eleuthera,Bahamas,MYEH,4,258,4
655,LNK,40.85100173950195,-96.75920104980467,Lincoln Airport,Lincoln,United States,KLNK,3,243,8
2203,LEB,43.6260986328,-72.30419921880001,Lebanon Municipal Airport,Lebanon,United States,KLEB,2,240,5
34,YAM,46.48500061035156,-84.5093994140625,Sault Ste Marie Airport,Sault Sainte Marie,Canada,CYAM,4,240,3
553,CLL,30.58860016,-96.36380005,Easterwood Field,College Station,United States,KCLL,2,239,1
962,MXL,32.6306,-115.241997,General Rodolfo Sánchez Taboada International Airport,Mexicali,Mexico,MMML,2,237,5
686,YUM,32.65660095,-114.6060028,Yuma MCAS/Yuma International Airport,Yuma,United States,KNYL,1,235,4
129,YUY,48.20610046386719,-78.83560180664062,Rouyn Noranda Airport,Rouyn,Canada,CYUY,3,231,1
940,HUX,15.7753,-96.262604,Bahías de Huatulco International Airport,Huatulco,Mexico,MMBT,2,231,5
43,YBL,49.950801849365234,-125.27100372314452,Campbell River Airport,Campbell River,Canada,CYBL,2,228,6
1984,YXT,54.468498,-128.576009,Northwest Regional Airport Terrace-Kitimat,Terrace,Canada,CYXT,3,227,6
670,MHK,39.14099884033203,-96.6707992553711,Manhattan Regional Airport,Manhattan,United States,KMHK,2,223,1
2213,LYH,37.326698303222656,-79.20040130615234,Lynchburg Regional Preston Glenn Field,Lynchburg,United States,KLYH,1,222,3
656,LSE,43.879002,-91.256699,La Crosse Municipal Airport,La Crosse,United States,KLSE,2,219,8
641,JAC,43.6072998046875,-110.73799896240234,Jackson Hole Airport,Jacksn Hole,United States,KJAC,2,215,1
2211,FLO,34.18539810180664,-79.7238998413086,Florence Regional Airport,Florence,United States,KFLO,1,214,3
2389,SIT,57.04710006713867,-135.36199951171875,Sitka Rocky Gutierrez Airport,Sitka,United States,PASI,2,206,3
954,CLQ,19.277,-103.577002,Licenciado Miguel de la Madrid Airport,Colima,Mexico,MMIA,2,202,5
1156,AKN,58.67679977,-156.6490021,King Salmon Airport,King Salmon,United States,PAKN,5,202,4
1135,ADQ,57.75,-152.4940033,Kodiak Airport,Kodiak,United States,PADQ,2,201,4
492,ACT,31.611299514770508,-97.23049926757812,Waco Regional Airport,Waco,United States,KACT,1,201,1
596,FLG,35.13850021,-111.6709976,Flagstaff Pulliam Airport,Flagstaff,United States,KFLG,1,199,4
1188,LNY,20.785600662231445,-156.9510040283203,Lanai Airport,Lanai,United States,PHNY,3,189,1
2242,TYR,32.35409927368164,-95.40239715576172,Tyler Pounds Regional Airport,Tyler,United States,KTYR,1,189,1
2250,ORH,42.26729965209961,-71.87570190429688,Worcester Regional Airport,Worcester,United States,KORH,2,186,4
2378,FYU,66.57150268554688,-145.25,Fort Yukon Airport,Fort Yukon,United States,PFYU,4,185,4
684,MWA,37.75500107,-89.01110077,Williamson County Regional Airport,Marion,United States,KMWA,1,185,2
573,DEC,39.834598541259766,-88.8656997680664,Decatur Airport,Decatur,United States,KDEC,2,183,8
106,YQL,49.6302986145,-112.800003052,Lethbridge County Airport,Lethbridge,Canada,CYQL,1,181,4
2066,YZR,42.9994010925293,-82.30889892578125,Chris Hadfield Airport,Sarnia,Canada,CYZR,1,181,3
2238,SJT,31.35770034790039,-100.49600219726562,San Angelo Regional Mathis Field,San Angelo,United States,KSJT,1,180,1
2202,SDY,47.706902,-104.193001,Sidney - Richland Regional Airport,Sidney,United States,KSDY,1,177,2
2241,TXK,33.45370101928711,-93.99099731445312,Texarkana Regional Webb Field,Texarkana,United States,KTXK,1,175,1
1134,DLG,59.04470062,-158.5050049,Dillingham Airport,Dillingham,United States,PADL,2,175,4
2234,LAW,34.5676994324,-98.4166030884,Lawton Fort Sill Regional Airport,Lawton,United States,KLAW,1,172,1
2206,PVC,42.0718994141,-70.2213973999,Provincetown Municipal Airport,Provincetown,United States,KPVC,1,171,5
1151,ILI,59.75439835,-154.9109955,Iliamna Airport,Iliamna,United States,PAIL,1,169,4
75,YHU,45.5175018311,-73.4169006348,Montréal / Saint-Hubert Airport,Montreal,Canada,CYHU,4,166,8
926,GDT,21.444499969482425,-71.14230346679688,JAGS McCartney International Airport,Cockburn Town,Turks and Caicos Islands,MBGT,3,165,5
706,PIH,42.9098014831543,-112.59600067138672,Pocatello Regional Airport,Pocatello,United States,KPIH,1,160,3
2282,TBN,37.74160004,-92.14070129,Waynesville-St. Robert Regional Forney field,Fort Leonardwood,United States,KTBN,1,157,2
993,CYB,19.687000274658203,-79.88279724121094,Gerrard Smith International Airport,Cayman Brac,Cayman Islands,MWCB,3,157,3
2214,PGV,35.6352005,-77.38529968,Pitt Greenville Airport,Greenville,United States,KPGV,1,156,3
62,YGK,44.22529983520508,-76.5969009399414,Kingston Norman Rogers Airport,Kingston,Canada,CYGK,1,155,3
2276,TOL,41.58679962,-83.80780029,Toledo Express Airport,Toledo,United States,KTOL,4,154,8
590,EWB,41.67610168457031,-70.95690155029297,New Bedford Regional Airport,New Bedford,United States,KEWB,3,153,5
99,YPW,49.83420181274414,-124.5,Powell River Airport,Powell River,Canada,CYPW,1,151,6
2280,TWF,42.4818,-114.487999,Joslin Field Magic Valley Regional Airport,Twin Falls,United States,KTWF,1,148,3
2170,CSG,32.516300201416016,-84.93890380859375,Columbus Metropolitan Airport,Columbus,United States,KCSG,1,139,7
2240,SPS,33.9888,-98.491898,Sheppard Air Force Base-Wichita Falls Municipal Airport,Wichita Falls,United States,KSPS,1,135,1
2055,YYD,54.82469940185547,-127.18299865722656,Smithers Airport,Smithers,Canada,CYYD,3,134,6
500,ALS,37.434898,-105.866997,San Luis Valley Regional Bergman Field,Alamosa,United States,KALS,1,132,1
149,YYB,46.363602,-79.422798,North Bay Jack Garland Airport,North Bay,Canada,CYYB,2,130,3
2327,TAP,14.7943000793,-92.3700027466,Tapachula International Airport,Tapachula,Mexico,MMTP,1,129,5
2209,SLK,44.38529968261719,-74.2061996459961,Adirondack Regional Airport,Saranac Lake,United States,KSLK,1,127,5
2054,YWL,52.1831016541,-122.054000854,Williams Lake Airport,Williams Lake,Canada,CYWL,2,127,6
2326,PXM,15.8769,-97.089103,Puerto Escondido International Airport,Puerto Escondido,Mexico,MMPS,1,126,5
950,DGO,24.1242008209,-104.527999878,General Guadalupe Victoria International Airport,Durango,Mexico,MMDO,3,125,5
2172,DHN,31.3213005065918,-85.44960021972656,Dothan Regional Airport,Dothan,United States,KDHN,1,125,7
2237,ROW,33.30160140991211,-104.53099822998048,Roswell International Air Center Airport,Roswell,United States,KROW,1,124,1
636,IRK,40.09349822998047,-92.5448989868164,Kirksville Regional Airport,Kirksville,United States,KIRK,1,123,2
624,HVN,41.26369858,-72.88680267,Tweed New Haven Airport,New Haven,United States,KHVN,1,123,3
2166,TEB,40.85010147089999,-74.060798645,Teterboro Airport,Teterboro,United States,KTEB,1,121,5
694,OWB,37.74010086,-87.16680145,Owensboro Daviess County Airport,Owensboro,United States,KOWB,2,119,2
2169,BQK,31.2588005065918,-81.46649932861328,Brunswick Golden Isles Airport,Brunswick,United States,KBQK,1,117,7
2175,GTR,33.450298309299995,-88.5914001465,Golden Triangle Regional Airport,Columbus Mississippi,United States,KGTR,1,115,7
519,BHB,44.45000076,-68.3615036,Hancock County-Bar Harbor Airport,Bar Harbor,United States,KBHB,1,113,5
2192,VLD,30.78249931335449,-83.27670288085938,Valdosta Regional Airport,Valdosta,United States,KVLD,1,111,7
2279,YKM,46.56819916,-120.5439987,Yakima Air Terminal McAllister Field,Yakima,United States,KYKM,1,111,3
2168,OGS,44.6819000244,-75.46549987790002,Ogdensburg International Airport,Ogdensburg,United States,KOGS,1,109,7
490,ABY,31.535499572753903,-84.19450378417969,Southwest Georgia Regional Airport,Albany,United States,KABY,1,109,7
2208,RUT,43.52939987,-72.94960022,Rutland - Southern Vermont Regional Airport,Rutland,United States,KRUT,1,108,5
2056,YYF,49.46310043334961,-119.60199737548828,Penticton Airport,Penticton,Canada,CYYF,1,107,6
2207,RKD,44.06010056,-69.09919739,Knox County Regional Airport,Rockland,United States,KRKD,1,103,5
530,BPT,29.9507999420166,-94.02069854736328,Southeast Texas Regional Airport,Beaumont,United States,KBPT,1,101,1
964,MTT,18.1033992767,-94.5807037354,Minatitlán/Coatzacoalcos National Airport,Minatitlan,Mexico,MMMT,1,100,5
509,AUG,44.3205986023,-69.7973022461,Augusta State Airport,Augusta,United States,KAUG,1,100,5
713,PUW,46.7439,-117.110001,Pullman Moscow Regional Airport,Pullman,United States,KPUW,2,100,3
