id,modularity,degree,weighted_degree,component,lat,lng,Name,City,Country,Label
618,69506484.66402413,47,16354,1,29.64539909,-95.27890015,William P Hobby Airport,Houston,United States,KHOU
368,68475725.83666912,65,16979,1,56.92359924316406,23.971099853515625,Riga International Airport,Riga,Latvia,EVRA
1033,47093371.600357465,49,16286,2,-37.0080986023,174.792007446,Auckland International Airport,Auckland,New Zealand,NZAA
688,45115380.48325661,22,17051,1,35.39310073852539,-97.60070037841795,Will Rogers World Airport,Oklahoma City,United States,KOKC
1272,40245260.57700352,72,17075,1,14.5086,121.019997,Ninoy Aquino International Airport,Manila,Philippines,RPLL
1851,24832066.53877072,54,16143,1,38.9656982421875,121.53900146484376,Zhoushuizi Airport,Dalian,China,ZYTL
929,14851454.836718382,46,15992,1,18.5673999786,-68.36340332030001,Punta Cana International Airport,Punta Cana,Dominican Republic,MDPC
1812,11775621.194265189,59,15907,1,31.197900772094727,121.33599853515624,Shanghai Hongqiao International Airport,Shanghai,China,ZSSS
833,7045447.736421101,74,17644,1,47.42976,19.261093,Budapest Liszt Ferenc International Airport,Budapest,Hungary,LHBP
720,5753336.179060674,19,15584,6,37.50519943237305,-77.3197021484375,Richmond International Airport,Richmond,United States,KRIC
1764,4427624.305174049,57,15429,1,30.7838,114.208,Wuhan Tianhe International Airport,Wuhan,China,ZHHH
1778,4424332.805070693,75,17902,1,34.447102,108.751999,Xi'an Xianyang International Airport,Xi'an,China,ZLXY
94,3806545.626793141,26,17994,3,45.3224983215332,-75.66919708251953,Ottawa Macdonald-Cartier International Airport,Ottawa,Canada,CYOW
1005,3541468.8477281625,38,15287,4,25.0389995575,-77.46620178219999,Lynden Pindling International Airport,Nassau,Bahamas,MYNN
208,3007404.295002344,81,15167,1,48.6898994446,9.22196006775,Stuttgart Airport,Stuttgart,Germany,EDDS
689,2913804.0071788915,20,15146,1,41.3032,-95.894096,Eppley Airfield,Omaha,United States,KOMA
632,2577764.952361096,34,15050,1,39.7173,-86.294403,Indianapolis International Airport,Indianapolis,United States,KIND
1666,2298924.188472919,60,18381,2,-27.38419914245605,153.11700439453125,Brisbane International Airport,Brisbane,Australia,YBBN
555,2169839.358064422,33,18425,1,39.998001,-82.891899,John Glenn Columbus International Airport,Columbus,United States,KCMH
1121,2150804.939115647,104,18440,1,25.273056,51.608056,Hamad International Airport,Doha,Qatar,OTHH
1560,1923192.9967516237,38,14788,1,13.1979,77.706299,Kempegowda International Airport,Bangalore,India,VOBL
687,1920864.1783170197,35,14794,1,37.721298,-122.221001,Metropolitan Oakland International Airport,Oakland,United States,KOAK
952,1708092.121547784,40,14681,1,20.52179908752441,-103.31099700927734,Don Miguel Hidalgo Y Costilla International Airport,Guadalajara,Mexico,MMGL
1825,1701394.544768844,80,18660,1,29.719200134277344,106.64199829101562,Chongqing Jiangbei International Airport,Chongqing,China,ZUCK
890,1608897.793310365,64,14617,1,44.5711111,26.085,Henri Coandă International Airport,Bucharest,Romania,LROP
1798,1501038.9492719462,69,18789,1,30.22949981689453,120.43399810791016,Hangzhou Xiaoshan International Airport,Hangzhou,China,ZSHC
1790,1236048.52607687,68,14326,1,24.54400062561035,118.12799835205078,Xiamen Gaoqi International Airport,Xiamen,China,ZSAM
1208,1170028.9214251505,35,14261,5,42.77519989013672,141.69200134277344,New Chitose Airport,Sapporo,Japan,RJCC
611,1064709.143204056,20,14152,7,42.88079834,-85.52279663,Gerald R. Ford International Airport,Grand Rapids,United States,KGRR
868,1041781.7088169984,68,14120,1,35.857498,14.4775,Malta International Airport,Malta,Malta,LMML
1068,1033456.6178770616,71,19227,1,24.95759963989257,46.69879913330078,King Khaled International Airport,Riyadh,Saudi Arabia,OERK
1189,1018009.9293315564,21,14095,1,20.8986,-156.429993,Kahului Airport,Kahului,United States,PHOG
488,951811.855389352,23,14007,1,35.040199,-106.609001,Albuquerque International Sunport,Albuquerque,United States,KABQ
807,897583.7170446534,115,13923,1,48.7233333,2.3794444,Paris-Orly Airport,Paris,France,LFPO
461,858665.8372105225,72,19471,1,30.12190055847168,31.40559959411621,Cairo International Airport,Cairo,Egypt,HECA
665,842698.1758510304,75,19489,1,41.785999,-87.752403,Chicago Midway International Airport,Chicago,United States,KMDW
236,841623.5562792923,74,19498,1,52.4538993835,-1.74802994728,Birmingham International Airport,Birmingham,United Kingdom,EGBB
1093,792328.2269631037,52,13742,1,29.226600646972656,47.96889877319336,Kuwait International Airport,Kuwait,Kuwait,OKBK
695,781664.024067718,23,13732,4,26.68320083618164,-80.09559631347656,Palm Beach International Airport,West Palm Beach,United States,KPBI
1759,752132.225271698,78,19666,1,22.639299392700195,113.81099700927734,Shenzhen Bao'an International Airport,Shenzhen,China,ZGSZ
905,719274.695833002,43,13602,1,38.2924003601,27.156999588,Adnan Menderes International Airport,Izmir,Turkey,LTBJ
578,717647.9031653459,17,13604,1,41.53400039672852,-93.66310119628906,Des Moines International Airport,Des Moines,United States,KDSM
1450,714048.7518087629,56,13591,1,50.345001220703125,30.894699096679688,Boryspil International Airport,Kiev,Ukraine,UKBB
1598,706098.3491947806,52,19762,1,10.8187999725,106.652000427,Tan Son Nhat International Airport,Ho Chi Minh City,Vietnam,VVTS
53,665814.9530122221,38,19842,3,53.3097000122,-113.580001831,Edmonton International Airport,Edmonton,Canada,CYEG
1591,653974.6689508564,45,13450,1,21.221200942993164,105.80699920654295,Noi Bai International Airport,Hanoi,Vietnam,VVNB
1806,634205.0279468124,53,13400,1,31.742000579833984,118.86199951171876,Nanjing Lukou Airport,Nanjing,China,ZSNJ
1059,593868.3862050575,43,13288,1,26.471200942993164,49.79790115356445,King Fahd International Airport,Dammam,Saudi Arabia,OEDF
1064,586971.1269473311,89,20065,1,21.6796,39.156502,King Abdulaziz International Airport,Jeddah,Saudi Arabia,OEJN
340,574090.7120024597,76,20095,1,52.1656990051,20.9671001434,Warsaw Chopin Airport,Warsaw,Poland,EPWA
1101,556834.9199855097,54,13179,1,23.593299865722656,58.284400939941406,Muscat International Airport,Muscat,Oman,OOMS
498,547681.1296159544,19,13161,1,42.74829864501953,-73.80169677734375,Albany International Airport,Albany,United States,KALB
986,537697.8842261585,27,13128,1,9.993860244750977,-84.20880126953125,Juan Santamaria International Airport,San Jose,Costa Rica,MROC
1392,520139.127368914,52,13060,1,-12.0219,-77.114305,Jorge Chávez International Airport,Lima,Peru,SPIM
1809,514993.3874658936,52,13042,1,36.2661018372,120.374000549,Liuting Airport,Qingdao,China,ZSQD
257,501491.5264718275,157,20335,1,51.148102,-0.190278,London Gatwick Airport,London,United Kingdom,EGKK
692,494953.0477754872,19,12979,1,36.89459991455078,-76.20120239257812,Norfolk International Airport,Norfolk,United States,KORF
1507,468407.454308809,158,20463,1,55.40879821777344,37.90629959106445,Domodedovo International Airport,Moscow,Russia,UUDD
723,452986.0641893998,18,12812,1,43.118900299072266,-77.67240142822266,Greater Rochester International Airport,Rochester,United States,KROC
2190,437846.8381289015,16,12746,1,32.1161003112793,-110.94100189208984,Tucson International Airport,Tucson,United States,KTUS
527,435188.5689773103,46,12734,1,36.1245002746582,-86.6781997680664,Nashville International Airport,Nashville,United States,KBNA
810,426145.29351379815,65,12686,1,47.59,7.5291667,EuroAirport Basel-Mulhouse-Freiburg Airport,Mulhouse,France,LFSB
884,421622.4835390324,59,12665,1,41.2481002808,-8.68138980865,Francisco de Sá Carneiro Airport,Porto,Portugal,LPPR
1321,421046.10453589575,49,12656,1,-22.8099994659,-43.2505569458,Rio Galeão – Tom Jobim International Airport,Rio De Janeiro,Brazil,SBGL
1753,413499.10142494447,61,12622,1,28.1891994476,113.220001221,Changsha Huanghua International Airport,Changcha,China,ZGHA
769,411644.3304786808,119,20716,1,39.551700592,2.73881006241,Palma De Mallorca Airport,Palma de Mallorca,Spain,LEPA
