id,modularity,degree,weighted_degree,component,lat,lng,Name,City,Country,Label
618,69506484.66402413,47,16354,1,29.64539909,-95.27890015,William P Hobby Airport,Houston,United States,KHOU
368,68475725.83666912,65,16979,1,56.92359924316406,23.971099853515625,Riga International Airport,Riga,Latvia,EVRA
1033,47093371.600357465,49,16286,1,-37.0080986023,174.792007446,Auckland International Airport,Auckland,New Zealand,NZAA
688,45115380.48325661,22,17051,1,35.39310073852539,-97.60070037841795,Will Rogers World Airport,Oklahoma City,United States,KOKC
1272,40245260.57700352,72,17075,1,14.5086,121.019997,Ninoy Aquino International Airport,Manila,Philippines,RPLL
1851,24832066.53877072,54,16143,1,38.9656982421875,121.53900146484376,Zhoushuizi Airport,Dalian,China,ZYTL
929,14851454.836718382,46,15992,1,18.5673999786,-68.36340332030001,Punta Cana International Airport,Punta Cana,Dominican Republic,MDPC
1812,11775621.194265189,59,15907,1,31.197900772094727,121.33599853515624,Shanghai Hongqiao International Airport,Shanghai,China,ZSSS
833,7045447.736421101,74,17644,1,47.42976,19.261093,Budapest Liszt Ferenc International Airport,Budapest,Hungary,LHBP
720,5753336.179060674,19,15584,1,37.50519943237305,-77.3197021484375,Richmond International Airport,Richmond,United States,KRIC
1764,4427624.305174049,57,15429,1,30.7838,114.208,Wuhan Tianhe International Airport,Wuhan,China,ZHHH
1778,4424332.805070693,75,17902,1,34.447102,108.751999,Xi'an Xianyang International Airport,Xi'an,China,ZLXY
94,3806545.626793141,26,17994,1,45.3224983215332,-75.66919708251953,Ottawa Macdonald-Cartier International Airport,Ottawa,Canada,CYOW
1005,3541468.8477281625,38,15287,1,25.0389995575,-77.46620178219999,Lynden Pindling International Airport,Nassau,Bahamas,MYNN
208,3007404.295002344,81,15167,1,48.6898994446,9.22196006775,Stuttgart Airport,Stuttgart,Germany,EDDS
689,2913804.0071788915,20,15146,1,41.3032,-95.894096,Eppley Airfield,Omaha,United States,KOMA
632,2577764.952361096,34,15050,1,39.7173,-86.294403,Indianapolis International Airport,Indianapolis,United States,KIND
1666,2298924.188472919,60,18381,1,-27.38419914245605,153.11700439453125,Brisbane International Airport,Brisbane,Australia,YBBN
555,2169839.358064422,33,18425,1,39.998001,-82.891899,John Glenn Columbus International Airport,Columbus,United States,KCMH
1121,2150804.939115647,104,18440,1,25.273056,51.608056,Hamad International Airport,Doha,Qatar,OTHH
1560,1923192.9967516237,38,14788,1,13.1979,77.706299,Kempegowda International Airport,Bangalore,India,VOBL
687,1920864.1783170197,35,14794,1,37.721298,-122.221001,Metropolitan Oakland International Airport,Oakland,United States,KOAK
952,1708092.121547784,40,14681,1,20.52179908752441,-103.31099700927734,Don Miguel Hidalgo Y Costilla International Airport,Guadalajara,Mexico,MMGL
1825,1701394.544768844,80,18660,1,29.719200134277344,106.64199829101562,Chongqing Jiangbei International Airport,Chongqing,China,ZUCK
890,1608897.793310365,64,14617,1,44.5711111,26.085,Henri Coandă International Airport,Bucharest,Romania,LROP
1798,1501038.9492719462,69,18789,1,30.22949981689453,120.43399810791016,Hangzhou Xiaoshan International Airport,Hangzhou,China,ZSHC
1790,1236048.52607687,68,14326,1,24.54400062561035,118.12799835205078,Xiamen Gaoqi International Airport,Xiamen,China,ZSAM
1208,1170028.9214251505,35,14261,1,42.77519989013672,141.69200134277344,New Chitose Airport,Sapporo,Japan,RJCC
611,1064709.143204056,20,14152,1,42.88079834,-85.52279663,Gerald R. Ford International Airport,Grand Rapids,United States,KGRR
868,1041781.7088169984,68,14120,1,35.857498,14.4775,Malta International Airport,Malta,Malta,LMML
1068,1033456.6178770616,71,19227,1,24.95759963989257,46.69879913330078,King Khaled International Airport,Riyadh,Saudi Arabia,OERK
1189,1018009.9293315564,21,14095,1,20.8986,-156.429993,Kahului Airport,Kahului,United States,PHOG
488,951811.855389352,23,14007,1,35.040199,-106.609001,Albuquerque International Sunport,Albuquerque,United States,KABQ
807,897583.7170446534,115,13923,1,48.7233333,2.3794444,Paris-Orly Airport,Paris,France,LFPO
461,858665.8372105225,72,19471,1,30.12190055847168,31.40559959411621,Cairo International Airport,Cairo,Egypt,HECA
665,842698.1758510304,75,19489,1,41.785999,-87.752403,Chicago Midway International Airport,Chicago,United States,KMDW
236,841623.5562792923,74,19498,1,52.4538993835,-1.74802994728,Birmingham International Airport,Birmingham,United Kingdom,EGBB
1093,792328.2269631037,52,13742,1,29.226600646972656,47.96889877319336,Kuwait International Airport,Kuwait,Kuwait,OKBK
695,781664.024067718,23,13732,1,26.68320083618164,-80.09559631347656,Palm Beach International Airport,West Palm Beach,United States,KPBI
1759,752132.225271698,78,19666,1,22.639299392700195,113.81099700927734,Shenzhen Bao'an International Airport,Shenzhen,China,ZGSZ
905,719274.695833002,43,13602,1,38.2924003601,27.156999588,Adnan Menderes International Airport,Izmir,Turkey,LTBJ
578,717647.9031653459,17,13604,1,41.53400039672852,-93.66310119628906,Des Moines International Airport,Des Moines,United States,KDSM
1450,714048.7518087629,56,13591,1,50.345001220703125,30.894699096679688,Boryspil International Airport,Kiev,Ukraine,UKBB
1598,706098.3491947806,52,19762,1,10.8187999725,106.652000427,Tan Son Nhat International Airport,Ho Chi Minh City,Vietnam,VVTS
53,665814.9530122221,38,19842,1,53.3097000122,-113.580001831,Edmonton International Airport,Edmonton,Canada,CYEG
1591,653974.6689508564,45,13450,1,21.221200942993164,105.80699920654295,Noi Bai International Airport,Hanoi,Vietnam,VVNB
1806,634205.0279468124,53,13400,1,31.742000579833984,118.86199951171876,Nanjing Lukou Airport,Nanjing,China,ZSNJ
1059,593868.3862050575,43,13288,1,26.471200942993164,49.79790115356445,King Fahd International Airport,Dammam,Saudi Arabia,OEDF
1064,586971.1269473311,89,20065,1,21.6796,39.156502,King Abdulaziz International Airport,Jeddah,Saudi Arabia,OEJN
340,574090.7120024597,76,20095,1,52.1656990051,20.9671001434,Warsaw Chopin Airport,Warsaw,Poland,EPWA
1101,556834.9199855097,54,13179,1,23.593299865722656,58.284400939941406,Muscat International Airport,Muscat,Oman,OOMS
498,547681.1296159544,19,13161,1,42.74829864501953,-73.80169677734375,Albany International Airport,Albany,United States,KALB
986,537697.8842261585,27,13128,1,9.993860244750977,-84.20880126953125,Juan Santamaria International Airport,San Jose,Costa Rica,MROC
1392,520139.127368914,52,13060,1,-12.0219,-77.114305,Jorge Chávez International Airport,Lima,Peru,SPIM
1809,514993.3874658936,52,13042,1,36.2661018372,120.374000549,Liuting Airport,Qingdao,China,ZSQD
257,501491.5264718275,157,20335,1,51.148102,-0.190278,London Gatwick Airport,London,United Kingdom,EGKK
692,494953.0477754872,19,12979,1,36.89459991455078,-76.20120239257812,Norfolk International Airport,Norfolk,United States,KORF
1507,468407.454308809,158,20463,1,55.40879821777344,37.90629959106445,Domodedovo International Airport,Moscow,Russia,UUDD
723,452986.0641893998,18,12812,1,43.118900299072266,-77.67240142822266,Greater Rochester International Airport,Rochester,United States,KROC
2190,437846.8381289015,16,12746,1,32.1161003112793,-110.94100189208984,Tucson International Airport,Tucson,United States,KTUS
527,435188.5689773103,46,12734,1,36.1245002746582,-86.6781997680664,Nashville International Airport,Nashville,United States,KBNA
810,426145.29351379815,65,12686,1,47.59,7.5291667,EuroAirport Basel-Mulhouse-Freiburg Airport,Mulhouse,France,LFSB
884,421622.4835390324,59,12665,1,41.2481002808,-8.68138980865,Francisco de Sá Carneiro Airport,Porto,Portugal,LPPR
1321,421046.10453589575,49,12656,1,-22.8099994659,-43.2505569458,Rio Galeão – Tom Jobim International Airport,Rio De Janeiro,Brazil,SBGL
1753,413499.10142494447,61,12622,1,28.1891994476,113.220001221,Changsha Huanghua International Airport,Changcha,China,ZGHA
769,411644.3304786808,119,20716,1,39.551700592,2.73881006241,Palma De Mallorca Airport,Palma de Mallorca,Spain,LEPA
643,411011.1177807414,26,12620,1,30.49410057067871,-81.68789672851562,Jacksonville International Airport,Jacksonville,United States,KJAX
838,408294.3205418005,49,12600,1,37.466801,15.0664,Catania-Fontanarossa Airport,Catania,Italy,LICC
272,406928.4080731893,62,12594,1,55.8718986511,-4.43306016922,Glasgow International Airport,Glasgow,United Kingdom,EGPF
859,401704.74102481874,51,12567,1,40.886002,14.2908,Naples International Airport,Naples,Italy,LIRN
1205,401509.1287539883,57,20772,1,34.42729949951172,135.24400329589844,Kansai International Airport,Osaka,Japan,RJBB
2060,369452.12841679633,56,12388,1,41.63980102539063,123.48300170898438,Taoxian Airport,Shenyang,China,ZYTX
1844,342809.3567094637,51,12225,1,43.90710067749024,87.47419738769531,Ürümqi Diwopu International Airport,Urumqi,China,ZWWW
1219,341690.29201481777,37,12218,1,33.585899353027344,130.4510040283203,Fukuoka Airport,Fukuoka,Japan,RJFF
1092,338629.3499737769,53,12201,1,31.7226009369,35.9931983948,Queen Alia International Airport,Amman,Jordan,OJAI
735,336582.2686977301,30,21134,1,37.362598,-121.929001,Norman Y. Mineta San Jose International Airport,San Jose,United States,KSJC
565,334352.9161318686,46,21148,1,39.0488014221,-84.6678009033,Cincinnati Northern Kentucky International Airport,Cincinnati,United States,KCVG
1366,329165.8761812108,74,21204,1,4.70159,-74.1469,El Dorado International Airport,Bogota,Colombia,SKBO
852,328896.4641989826,61,12136,1,44.5354,11.2887,Bologna Guglielmo Marconi Airport,Bologna,Italy,LIPE
2191,312098.5248947076,17,12023,8,35.81100082,-83.9940033,McGhee Tyson Airport,Knoxville,United States,KTYS
1614,306304.4609096789,37,11968,1,-8.7481698989868,115.16699981689,Ngurah Rai (Bali) International Airport,Denpasar,Indonesia,WADD
1294,295534.9951347489,41,11883,1,-34.8222,-58.5358,Ministro Pistarini International Airport,Buenos Aires,Argentina,SAEZ
757,291599.56885941327,34,11855,1,43.30110168457031,-2.9106099605560303,Bilbao Airport,Bilbao,Spain,LEBB
1417,276624.2227191328,44,21594,1,18.4393997192,-66.0018005371,Luis Munoz Marin International Airport,San Juan,Puerto Rico,TJSJ
1894,258799.88976899377,28,11567,1,18.503700256347656,-77.91339874267578,Sangster International Airport,Montego Bay,Jamaica,MKJS
1847,254950.6330759562,54,11517,1,45.6234016418457,126.25,Taiping Airport,Harbin,China,ZYHB
520,247960.75559255065,20,11457,1,33.56290054,-86.75350189,Birmingham-Shuttlesworth International Airport,Birmingham,United States,KBHM
202,245014.6159123465,84,11418,1,50.8658981323,7.1427397728,Cologne Bonn Airport,Cologne,Germany,EDDK
548,240431.75645915465,19,11376,1,32.89860153,-80.04049683,Charleston Air Force Base-International Airport,Charleston,United States,KCHS
1227,231069.1152223472,42,11258,1,34.8583984375,136.80499267578125,Chubu Centrair International Airport,Nagoya,Japan,RJGG
343,227790.29457206788,30,11224,1,57.662799835205,12.279800415039,Gothenburg-Landvetter Airport,Gothenborg,Sweden,ESGG
966,220489.32914110203,32,11142,1,25.7784996033,-100.107002258,General Mariano Escobedo International Airport,Monterrey,Mexico,MMMY
878,219587.25597231317,62,11123,1,37.0144004822,-7.96590995789,Faro Airport,Faro,Portugal,LPFR
771,219530.4299800385,57,11122,1,39.4893,-0.481625,Valencia Airport,Valencia,Spain,LEVC
1567,216495.91500993285,35,11075,1,12.990005493164062,80.16929626464844,Chennai International Airport,Madras,India,VOMM
984,211632.99089431364,68,22303,1,9.0713596344,-79.3834991455,Tocumen International Airport,Panama City,Panama,MPTO
431,205224.43906608265,76,10932,1,27.931900024414062,-15.38659954071045,Gran Canaria Airport,Gran Canaria,Spain,GCLP
1845,203968.01638989645,27,10910,1,43.9962005615,125.684997559,Longjia Airport,Changchun,China,ZYCC
333,202926.6062307476,51,10900,1,50.077702,19.7848,Kraków John Paul II International Airport,Krakow,Poland,EPKK
797,198636.17015160457,74,10838,1,45.725556,5.081111,Lyon Saint-Exupéry Airport,Lyon,France,LFLL
1762,196583.3669690321,50,10803,1,34.519699096699995,113.841003418,Zhengzhou Xinzheng International Airport,Zhengzhou,China,ZHCC
799,195188.4552747185,79,10787,1,43.439271922,5.22142410278,Marseille Provence Airport,Marseille,France,LFML
921,194441.64793307116,86,10775,1,40.898601532,29.3092002869,Sabiha Gökçen International Airport,Istanbul,Turkey,LTFJ
653,188841.7731827794,17,10697,1,34.729400634799994,-92.2242965698,Bill & Hillary Clinton National Airport/Adams Field,Little Rock,United States,KLIT
1579,185394.9539552236,32,10629,1,8.1132,98.316902,Phuket International Airport,Phuket,Thailand,VTSP
865,183869.83467175424,76,22727,1,32.01139831542969,34.88669967651367,Ben Gurion International Airport,Tel-aviv,Israel,LLBG
1788,182214.0443620074,89,22765,1,25.1019444,102.9291667,Kunming Changshui International Airport,Kunming,China,ZPPP
724,180468.258275058,31,22767,1,26.53619956970215,-81.75520324707031,Southwest Florida International Airport,Fort Myers,United States,KRSW
210,178136.47898280536,50,10512,1,52.461101532,9.68507957458,Hannover Airport,Hannover,Germany,EDDV
1161,177626.00023707515,34,10511,54,61.17440032958984,-149.99600219726562,Ted Stevens Anchorage International Airport,Anchorage,United States,PANC
2183,175716.71285493305,13,10478,4,32.12760162,-81.20210266,Savannah Hilton Head International Airport,Savannah,United States,KSAV
754,174279.4353833263,90,10444,1,38.28219985961914,-0.5581560134887695,Alicante International Airport,Alicante,Spain,LEAL
763,164747.6727220395,58,10267,1,38.8728981018,1.3731199502899998,Ibiza Airport,Ibiza,Spain,LEIB
77,153687.60564537204,32,10049,1,44.8807983398,-63.5085983276,Halifax / Stanfield International Airport,Halifax,Canada,CYHZ
1565,152950.0756993503,30,10016,1,17.2313175201,78.4298553467,Rajiv Gandhi International Airport,Hyderabad,India,VOHS
1642,152120.18481345355,48,23342,1,-6.1255698204,106.65599823,Soekarno-Hatta International Airport,Jakarta,Indonesia,WIII
1769,144639.03510956548,36,9832,1,19.93490028381348,110.45899963378906,Haikou Meilan International Airport,Haikou,China,ZJHK
1353,143591.12499672137,41,9806,1,-33.393001556396484,-70.78579711914062,Comodoro Arturo Merino Benítez International Airport,Santiago,Chile,SCEL
726,143482.53055407183,35,23508,1,29.533700942993164,-98.46980285644533,San Antonio International Airport,San Antonio,United States,KSAT
2194,141202.92099358488,14,9763,1,36.281898,-94.306801,Northwest Arkansas Regional Airport,Bentonville,United States,KXNA
924,139195.7178376773,49,9705,1,44.8184013367,20.3090991974,Belgrade Nikola Tesla Airport,Belgrade,Serbia,LYBE
1530,139042.18290552025,37,9693,1,7.180759906768799,79.88410186767578,Bandaranaike International Colombo Airport,Colombo,Sri Lanka,VCBI
278,138137.3836995288,143,9678,1,51.8849983215,0.234999999404,London Stansted Airport,London,United Kingdom,EGSS
1796,138089.25126820614,43,9672,1,25.93510055541992,119.66300201416016,Fuzhou Changle International Airport,Fuzhou,China,ZSFZ
974,134536.08260616742,22,9594,1,23.15180015563965,-109.72100067138672,Los Cabos International Airport,San Jose Del Cabo,Mexico,MMSD
613,133177.01708441615,19,9558,1,34.8956985474,-82.2189025879,Greenville Spartanburg International Airport,Greenville,United States,KGSP
295,132940.7909072743,54,9543,1,49.6233333,6.2044444,Luxembourg-Findel International Airport,Luxemburg,Luxembourg,ELLX
685,131396.7390506548,22,9510,1,33.6796989441,-78.9282989502,Myrtle Beach International Airport,Myrtle Beach,United States,KMYR
744,128795.6761107778,41,9430,1,42.69669342041016,23.411436080932617,Sofia Airport,Sofia,Bulgaria,LBSF
712,126438.1086903653,17,9371,1,33.8297004699707,-116.50700378417967,Palm Springs International Airport,Palm Springs,United States,KPSP
537,123817.43912451068,19,9294,1,42.94049835,-78.73220062,Buffalo Niagara International Airport,Buffalo,United States,KBUF
246,123245.88650449508,69,9268,1,51.382702,-2.71909,Bristol Airport,Bristol,United Kingdom,EGGD
2067,122184.94732448076,16,9245,2,43.11119842529297,-76.1063003540039,Syracuse Hancock International Airport,Syracuse,United States,KSYR
738,120423.33047163222,21,9191,1,33.67570114,-117.8679962,John Wayne Airport-Orange County Airport,Santa Ana,United States,KSNA
1716,118979.04350524588,25,9132,1,-34.945,138.531006,Adelaide International Airport,Adelaide,Australia,YPAD
1260,116521.61209542037,30,9053,1,33.51129913330078,126.49299621582033,Jeju International Airport,Cheju,South Korea,RKPC
1261,116368.50718486113,36,9048,1,35.1795005798,128.93800354,Gimhae International Airport,Busan,South Korea,RKPK
1745,115124.341840039,47,9007,1,39.1244010925,117.346000671,Tianjin Binhai International Airport,Tianjin,China,ZBTJ
781,113861.85614843076,46,8970,1,43.629101,1.36382,Toulouse-Blagnac Airport,Toulouse,France,LFBO
1053,110526.58782786995,39,8846,1,26.27079963684082,50.63359832763672,Bahrain International Airport,Bahrain,Bahrain,OBBI
971,108448.0490170154,21,8789,1,20.680099487304688,-105.25399780273438,Licenciado Gustavo Díaz Ordaz International Airport,Puerto Vallarta,Mexico,MMPR
987,107337.36472693892,31,8747,1,13.4409,-89.055702,Monseñor Óscar Arnulfo Romero International Airport,San Salvador,El Salvador,MSLP
1770,103836.53277497223,41,8602,1,18.30290031433105,109.41200256347656,Sanya Phoenix International Airport,Sanya,China,ZJSY
661,103374.7968922185,42,24726,1,39.2976,-94.713898,Kansas City International Airport,Kansas City,United States,KMCI
2189,102408.6003854638,18,8560,1,36.19839859008789,-95.88809967041016,Tulsa International Airport,Tulsa,United States,KTUL
747,102274.08673203316,53,8546,1,34.875099182128906,33.624900817871094,Larnaca International Airport,Larnaca,Cyprus,LCLK
1306,102106.18097174304,34,8528,1,-19.62444305419922,-43.97194290161133,Tancredo Neves International Airport,Belo Horizonte,Brazil,SBCF
1575,101853.9096513257,23,8524,1,18.7667999268,98.962600708,Chiang Mai International Airport,Chiang Mai,Thailand,VTCC
1094,101289.7955120306,44,8500,1,33.820899963378906,35.488399505615234,Beirut Rafic Hariri International Airport,Beirut,Lebanon,OLBA
739,100160.18714134392,59,24855,1,38.748697,-90.370003,St Louis Lambert International Airport,St. Louis,United States,KSTL
1706,99773.74365971192,53,24911,1,-37.673302,144.843002,Melbourne International Airport,Melbourne,Australia,YMML
809,99105.32160839989,55,8417,1,47.153198242200006,-1.61073005199,Nantes Atlantique Airport,Nantes,France,LFRS
766,99028.48962156636,112,24927,1,36.67490005493164,-4.499110221862793,Málaga Airport,Malaga,Spain,LEMG
680,97961.44739141276,11,8378,1,43.13990020751953,-89.3375015258789,Dane County Regional Truax Field,Madison,United States,KMSN
841,94574.47076673956,39,8222,1,38.175999,13.091,Falcone–Borsellino Airport,Palermo,Italy,LICJ
667,93820.0230502717,32,8197,1,35.04240036010742,-89.97669982910156,Memphis International Airport,Memphis,United States,KMEM
1571,92482.4365709222,48,8122,1,13.9125995636,100.607002258,Don Mueang International Airport,Bangkok,Thailand,VTBD
1727,92114.10199321625,36,8105,1,-31.94029998779297,115.96700286865234,Perth International Airport,Perth,Australia,YPPH
896,91624.864574877,59,8087,1,36.898701,30.800501,Antalya International Airport,Antalya,Turkey,LTAI
1268,90101.13303271294,31,8010,1,26.1958007812,127.646003723,Naha Airport,Okinawa,Japan,ROAH
861,88074.06912491727,25,7916,1,43.810001,11.2051,Peretola Airport,Florence,Italy,LIRQ
832,88034.7252563783,51,7914,1,40.51969909667969,22.97089958190918,Thessaloniki Macedonia International Airport,Thessaloniki,Greece,LGTS
722,87134.26308713344,14,7878,1,39.49909973144531,-119.76799774169922,Reno Tahoe International Airport,Reno,United States,KRNO
451,86204.39409180751,70,7814,1,8.97789001465,38.7993011475,Addis Ababa Bole International Airport,Addis Ababa,Ethiopia,HAAB
443,85349.90565616726,85,7777,1,33.36750030517578,-7.589970111846924,Mohammed V International Airport,Casablanca,Morocco,GMMN
1095,84424.9595133544,80,25635,1,24.433000564575195,54.651100158691406,Abu Dhabi International Airport,Abu Dhabi,United Arab Emirates,OMAA
1820,84138.7256464207,23,7709,1,37.40169906616211,121.37200164794922,Yantai Laishan Airport,Yantai,China,ZSYT
569,83263.69463000716,15,7676,1,39.90240097045898,-84.21939849853516,James M Cox Dayton International Airport,Dayton,United States,KDAY
714,80854.41111271681,19,7543,1,41.732601,-71.420403,Theodore Francis Green State Airport,Providence,United States,KPVD
510,80615.43142865846,42,25793,1,30.194499969482425,-97.6698989868164,Austin Bergstrom International Airport,Austin,United States,KAUS
1536,79615.92193928514,33,7454,1,22.654699325561523,88.44670104980469,Netaji Subhash Chandra Bose International Airport,Kolkata,India,VECC
514,78993.3262352907,26,25886,1,41.9388999939,-72.68319702149999,Bradley International Airport,Windsor Locks,United States,KBDL
1748,77937.16856607089,41,7360,1,37.74689865112305,112.62799835205078,Taiyuan Wusu Airport,Taiyuan,China,ZBYN
612,76960.86114660052,14,7315,34,36.097801208496094,-79.93730163574219,Piedmont Triad International Airport,Greensboro,United States,KGSO
749,76435.81749013775,41,7274,1,42.5614013671875,18.268199920654297,Dubrovnik Airport,Dubrovnik,Croatia,LDDU
1833,74511.4524394119,103,26209,1,30.578500747680664,103.9469985961914,Chengdu Shuangliu International Airport,Chengdu,China,ZUUU
468,73921.39774063957,59,7109,1,-1.31923997402,36.9277992249,Jomo Kenyatta International Airport,Nairobi,Kenya,HKJK
1805,73767.24651196407,38,7101,1,29.82670021057129,121.46199798583984,Ningbo Lishe International Airport,Ninbo,China,ZSNB
894,73703.0203298466,34,7101,1,40.1281013489,32.995098114,Esenboğa International Airport,Ankara,Turkey,LTAC
752,72846.70346388582,37,7046,1,43.53889846801758,16.29800033569336,Split Airport,Split,Croatia,LDSP
258,72476.79088374159,32,7021,1,51.505299,0.055278,London City Airport,London,United Kingdom,EGLC
813,72398.38080282044,101,26329,1,37.9364013672,23.9444999695,Eleftherios Venizelos International Airport,Athens,Greece,LGAV
1462,71610.58290225409,40,6963,1,53.882499694824,28.030700683594,Minsk National Airport,Minsk 2,Belarus,UMMS
1082,71390.40717614732,42,6947,1,35.416099548339844,51.15219879150391,Imam Khomeini International Airport,Tehran,Iran,OIIE
683,71282.62943534234,39,26372,1,29.99340057373047,-90.25800323486328,Louis Armstrong New Orleans International Airport,New Orleans,United States,KMSY
433,70804.48144267601,79,6908,1,28.044500351,-16.5725002289,Tenerife South Airport,Tenerife,Spain,GCTS
1422,70425.47147791019,22,6890,1,12.5014,-70.015198,Queen Beatrix International Airport,Oranjestad,Aruba,TNCA
196,68883.76184522548,65,6773,1,52.380001,13.5225,Berlin-Schönefeld Airport,Berlin,Germany,EDDB
1740,68698.78933219225,33,6755,1,40.851398,111.823997,Baita International Airport,Hohhot,China,ZBHH
301,68056.56243921541,44,6713,1,60.29339981,5.218140125,Bergen Airport Flesland,Bergen,Norway,ENBR
851,67291.73822509222,32,6657,1,45.445099,9.27674,Milano Linate Airport,Milan,Italy,LIML
528,66776.98348322365,16,6627,1,43.5644,-116.223,Boise Air Terminal/Gowen Field,Boise,United States,KBOI
541,66564.71395520165,10,6611,22,33.93880081176758,-81.11949920654297,Columbia Metropolitan Airport,Columbia,United States,KCAE
1184,66406.17553126274,11,6599,1,21.97599983215332,-159.33900451660156,Lihue Airport,Lihue,United States,PHLI
1801,66226.43094138277,34,6572,1,36.857200622558594,117.21600341796876,Yaoqiang Airport,Jinan,China,ZSJN
134,65960.08899908021,22,6565,1,49.9099998474,-97.2398986816,Winnipeg / James Armstrong Richardson International Airport,Winnipeg,Canada,CYWG
1827,65820.8482572175,42,6541,1,26.53849983215332,106.8010025024414,Longdongbao Airport,Guiyang,China,ZUGY
1518,65684.52090553605,75,26844,1,19.0886993408,72.8678970337,Chhatrapati Shivaji International Airport,Mumbai,India,VABB
264,65653.4846940644,44,6533,1,55.03749847412109,-1.6916699409484863,Newcastle Airport,Newcastle,United Kingdom,EGNT
332,65285.868615412655,41,6504,1,54.37760162353516,18.46619987487793,Gdańsk Lech Wałęsa Airport,Gdansk,Poland,EPGD
753,64907.47044080937,24,6476,1,45.7429008484,16.0687999725,Zagreb Airport,Zagreb,Croatia,LDZA
737,64002.03234132235,29,26910,1,38.69540023803711,-121.59100341796876,Sacramento International Airport,Sacramento,United States,KSMF
1265,63587.20573629093,13,6365,1,37.5583,126.791,Gimpo International Airport,Seoul,South Korea,RKSS
1303,63514.174086535575,41,6354,1,-15.86916732788086,-47.92083358764648,Presidente Juscelino Kubistschek International Airport,Brasilia,Brazil,SBBR
1786,62961.16376288204,27,6314,1,26.6800003052,100.246002197,Lijiang Airport,Lijiang,China,ZPLJ
1254,62641.86814259745,71,27072,1,35.552299,139.779999,Tokyo Haneda International Airport,Tokyo,Japan,RJTT
1183,61913.4259280928,11,6240,1,19.738783,-156.045603,Ellison Onizuka Kona International At Keahole Airport,Kona,United States,PHKO
370,61540.77662673062,44,6200,1,54.634102,25.285801,Vilnius International Airport,Vilnius,Lithuania,EYVI
776,61467.59415164918,49,6194,1,44.8283004761,-0.715556025505,Bordeaux-Mérignac Airport,Bordeaux,France,LFBD
1508,61243.55277113217,133,27174,1,55.972599,37.4146,Sheremetyevo International Airport,Moscow,Russia,UUEE
1656,60847.01645707707,19,6136,1,5.297140121459961,100.2770004272461,Penang International Airport,Penang,Malaysia,WMKP
445,60343.09070864282,47,6097,1,31.6068992615,-8.03629970551,Menara Airport,Marrakech,Morocco,GMMX
671,59841.82483583433,14,6061,1,42.932598,-71.435699,Manchester-Boston Regional Airport,Manchester NH,United States,KMHT
860,58631.77741794408,61,5944,1,43.683899,10.3927,Pisa International Airport,Pisa,Italy,LIRP
559,58609.018132629135,11,5950,28,38.805801,-104.700996,City of Colorado Springs Municipal Airport,Colorado Springs,United States,KCOS
834,58564.00476624812,40,5938,1,41.138901,16.760599,Bari Karol Wojtyła Airport,Bari,Italy,LIBD
650,58510.73494099294,13,5941,38,38.0364990234375,-84.60590362548828,Blue Grass Airport,Lexington KY,United States,KLEX
225,58137.142403667895,75,27453,1,60.317199707031,24.963300704956,Helsinki Vantaa Airport,Helsinki,Finland,EFHK
150,57800.864532395615,59,27449,1,51.113899231,-114.019996643,Calgary International Airport,Calgary,Canada,CYYC
930,56806.500071052695,30,5779,1,18.42970085144,-69.668899536133,Las Américas International Airport,Santo Domingo,Dominican Republic,MDSD
1563,56626.33373247046,21,5747,1,10.152,76.401901,Cochin International Airport,Kochi,India,VOCI
932,56566.39821334352,19,5757,1,14.5833,-90.527496,La Aurora Airport,Guatemala City,Guatemala,MGGT
864,56186.93336581311,92,27637,1,50.1008,14.26,Václav Havel Airport Prague,Prague,Czech Republic,LKPR
331,55613.12755171655,31,5657,1,58.876701354,5.6377801895,Stavanger Airport Sola,Stavanger,Norway,ENZV
690,55100.984038628325,15,5614,1,34.055999755859375,-117.60099792480467,Ontario International Airport,Ontario,United States,KONT
1773,55085.71175935055,27,5600,1,38.481899,106.009003,Yinchuan Airport,Yinchuan,China,ZLIC
856,54679.56478974936,71,27785,1,45.505299,12.3519,Venice Marco Polo Airport,Venice,Italy,LIPZ
729,54665.32287904916,23,5570,1,38.1744,-85.736,Louisville International Standiford Field,Louisville,United States,KSDF
816,54555.47960251281,60,5551,1,35.3396987915,25.1802997589,Heraklion International Nikos Kazantzakis Airport,Heraklion,Greece,LGIR
1633,54433.29238800264,23,5534,1,5.9372100830078125,116.0510025024414,Kota Kinabalu International Airport,Kota Kinabalu,Malaysia,WBKK
248,54292.40957169551,82,5524,1,51.874698638916016,-0.3683330118656158,London Luton Airport,London,United Kingdom,EGGW
211,53728.67577421555,38,5466,1,53.0475006104,8.78666973114,Bremen Airport,Bremen,Germany,EDDW
978,53312.257159371096,32,5430,1,32.541099548339844,-116.97000122070312,General Abelardo L. Rodríguez International Airport,Tijuana,Mexico,MMTJ
542,53160.42334445993,11,5414,23,40.91609954833984,-81.44219970703125,Akron Canton Regional Airport,Akron,United States,KCAK
1756,53068.2725345457,40,5392,1,22.608299255371094,108.1719970703125,Nanning Wuxu Airport,Nanning,China,ZGNN
308,52812.34997279651,101,27982,1,60.121,11.0502,Oslo Lufthavn,Oslo,Norway,ENGM
539,52461.538629442046,71,27979,1,39.1754,-76.668297,Baltimore/Washington International Thurgood Marshall Airport,Baltimore,United States,KBWI
774,52273.065658570886,37,5311,1,37.417999267578125,-5.8931097984313965,Sevilla Airport,Sevilla,Spain,LEZL
291,52241.71436172052,38,5308,1,55.7402992249,9.15178012848,Billund Airport,Billund,Denmark,EKBI
1494,52069.52870617808,46,5289,1,56.743099212646,60.802700042725,Koltsovo Airport,Yekaterinburg,Russia,USSS
102,51953.539852540816,20,5284,1,46.7911,-71.393303,Quebec Jean Lesage International Airport,Quebec,Canada,CYQB
536,51645.75793882469,9,5250,20,44.4719009399,-73.15329742429999,Burlington International Airport,Burlington,United States,KBTV
538,50335.7620341916,12,5102,1,34.20069885253906,-118.35900115966795,Bob Hope Airport,Burbank,United States,KBUR
1625,50088.383736230775,20,5062,1,-7.379829883575439,112.78700256347656,Juanda International Airport,Surabaya,Indonesia,WARR
1435,49612.38943195281,36,5011,1,40.46749877929688,50.04669952392578,Heydar Aliyev International Airport,Baku,Azerbaijan,UBBB
586,49608.79834927711,13,5018,1,31.80719948,-106.3779984,El Paso International Airport,El Paso,United States,KELP
1330,49543.36657046863,43,4993,1,-23.0074005127,-47.1344985962,Viracopos International Airport,Campinas,Brazil,SBKP
1196,48939.95049159579,36,4927,1,22.57710075378418,120.3499984741211,Kaohsiung International Airport,Kaohsiung,Taiwan,RCKH
1793,48889.86611658442,36,4921,1,28.864999771118164,115.9000015258789,Nanchang Changbei International Airport,Nanchang,China,ZSCN
992,48438.468735604525,31,4865,1,22.989200592041016,-82.40910339355469,José Martí International Airport,Havana,Cuba,MUHA
1532,48401.43340854855,20,4862,1,13.410699844400002,103.81300354,Siem Reap International Airport,Siem-reap,Cambodia,VDSR
1754,48343.96933360075,33,4855,1,25.21809959411621,110.03900146484376,Guilin Liangjiang International Airport,Guilin,China,ZGKL
568,48323.1828327175,23,4864,1,32.847099,-96.851799,Dallas Love Field,Dallas,United States,KDAL
546,47900.35246013386,8,4812,24,35.035301208496094,-85.20379638671875,Lovell Field,Chattanooga,United States,KCHA
652,47792.37066334204,12,4798,1,33.81769943,-118.1520004,Long Beach /Daugherty Field/ Airport,Long Beach,United States,KLGB
1558,47718.553627445006,36,4778,1,22.149599,113.592003,Macau International Airport,Macau,Macau,VMMC
1065,47650.63167007484,33,4766,1,24.5534,39.705101,Prince Mohammad Bin Abdulaziz Airport,Madinah,Saudi Arabia,OEMA
1816,47494.132189101096,33,4750,1,27.912201,120.851997,Wenzhou Longwan International Airport,Wenzhou,China,ZSWZ
602,47039.71828426292,10,4704,1,47.61989974975586,-117.53399658203124,Spokane International Airport,Spokane,United States,KGEG
432,46996.425780458,53,4691,1,28.945499,-13.6052,Lanzarote Airport,Arrecife,Spain,GCRR
1342,46491.95001400481,16,4617,1,-22.9104995728,-43.1631011963,Santos Dumont Airport,Rio De Janeiro,Brazil,SBRJ
1371,46027.90810122391,17,4559,1,3.54322,-76.3816,Alfonso Bonilla Aragon International Airport,Cali,Colombia,SKCL
1807,45845.10017349046,33,4538,1,31.780000686645508,117.2979965209961,Hefei Luogang International Airport,Hefei,China,ZSOF
153,45716.221729769095,8,4532,1,48.646900177,-123.426002502,Victoria International Airport,Victoria,Canada,CYYJ
2182,45679.772995322215,12,4527,1,43.64619827,-70.30930328,Portland International Jetport Airport,Portland,United States,KPWM
622,45603.45769803323,9,4517,35,34.637199401855,-86.775100708008,Huntsville International Carl T Jones Field,Huntsville,United States,KHSV
1311,45574.87040384676,19,4497,1,-25.5284996033,-49.1758003235,Afonso Pena Airport,Curitiba,Brazil,SBCT
1667,45416.35471196631,12,4481,1,-28.1644001007,153.505004883,Gold Coast Airport,Coolangatta,Australia,YBCG
995,45344.570504595824,19,4482,1,19.2928009033,-81.3576965332,Owen Roberts International Airport,Georgetown,Cayman Islands,MWCR
849,45298.26370098737,29,4469,1,45.200802,7.64963,Turin Airport,Torino,Italy,LIMF
927,45137.39029235903,21,4454,1,21.77359962463379,-72.26589965820312,Providenciales Airport,Providenciales,Turks and Caicos Islands,MBPV
1757,44583.95452567492,23,4368,1,23.552,116.5033,Jieyang Chaoshan International Airport,Shantou,China,ZGOW
1347,44306.13885223638,27,4325,1,-12.9086112976,-38.3224983215,Deputado Luiz Eduardo Magalhães International Airport,Salvador,Brazil,SBSV
1346,44303.96461475368,25,4324,1,-23.626110076904297,-46.65638732910156,Congonhas Airport,Sao Paulo,Brazil,SBSP
1336,44109.25698939128,24,4298,1,-29.994400024414062,-51.1713981628418,Salgado Filho Airport,Porto Alegre,Brazil,SBPA
1668,44101.156161109255,27,4301,1,-16.885799408,145.755004883,Cairns International Airport,Cairns,Australia,YBCS
882,43863.23666819604,30,4271,1,32.697899,-16.7745,Madeira Airport,Funchal,Portugal,LPMA
1609,43662.00404099441,28,4239,1,16.907300949099998,96.1332015991,Yangon International Airport,Yangon,Burma,VYYY
233,43570.320846678114,27,4230,1,54.6575012207,-6.21582984924,Belfast International Airport,Belfast,United Kingdom,EGAA
1437,43068.51353654882,28,4158,1,40.1473007202,44.3959007263,Zvartnots International Airport,Yerevan,Armenia,UDYZ
88,42784.83511849411,11,4123,1,49.9561004639,-119.377998352,Kelowna International Airport,Kelowna,Canada,CYLW
1531,42705.65144068171,15,4101,1,11.546600341796877,104.84400177001952,Phnom Penh International Airport,Phnom-penh,Cambodia,VDPP
664,42587.77876809553,12,4094,40,40.1935005188,-76.7633972168,Harrisburg International Airport,Harrisburg,United States,KMDT
1428,42533.12190055772,40,4079,1,43.35210037231445,77.04049682617188,Almaty Airport,Alma-ata,Kazakhstan,UAAA
1108,42511.10201470846,33,4070,1,24.9065,67.160797,Jinnah International Airport,Karachi,Pakistan,OPKC
1241,42360.38248016652,20,4050,1,34.785499572753906,135.43800354003906,Osaka International Airport,Osaka,Japan,RJOO
187,42297.98661234216,52,4044,1,36.85100173950195,10.22719955444336,Tunis Carthage International Airport,Tunis,Tunisia,DTTA
594,42151.01796092864,11,4029,1,36.77619934082031,-119.71800231933594,Fresno Yosemite International Airport,Fresno,United States,KFAT
160,42015.66267065954,58,4002,1,36.69100189208984,3.215409994125366,Houari Boumediene Airport,Algier,Algeria,DAAG
1035,41913.113164447874,21,3983,1,-43.48939895629883,172.53199768066406,Christchurch International Airport,Christchurch,New Zealand,NZCH
619,41688.13480735708,16,3959,1,41.06700134277344,-73.70760345458984,Westchester County Airport,White Plains,United States,KHPN
25,41686.936710823866,33,3953,1,63.985000610352,-22.605600357056,Keflavik International Airport,Keflavik,Iceland,BIKF
1323,41650.45198542768,84,29439,1,-23.435556411743164,-46.47305679321289,Guarulhos - Governador André Franco Montoro International Airport,Sao Paulo,Brazil,SBGR
598,41635.72004906104,7,3951,30,42.96540069580078,-83.74359893798828,Bishop International Airport,Flint,United States,KFNT
2186,41599.46891358105,6,3945,6,27.39539909362793,-82.55439758300781,Sarasota Bradenton International Airport,Sarasota,United States,KSRQ
270,41549.88527417159,29,3932,1,57.20190048217773,-2.197779893875122,Aberdeen Dyce Airport,Aberdeen,United Kingdom,EGPD
855,41520.47416672054,23,3927,1,45.395699,10.8885,Verona Villafranca Airport,Villafranca,Italy,LIPX
593,41065.62622340232,9,3863,29,46.92070007324219,-96.81580352783205,Hector International Airport,Fargo,United States,KFAR
224,41025.927321869785,25,3850,1,59.41329956049999,24.8327999115,Lennart Meri Tallinn Airport,Tallinn-ulemiste International,Estonia,EETN
848,41010.71206118324,71,3848,1,45.673901,9.70417,Il Caravaggio International Airport,Bergamo,Italy,LIME
1412,41005.66501737243,18,3853,1,18.337299346923828,-64.97339630126953,Cyril E. King Airport,St. Thomas,Virgin Islands,TIST
205,40762.17930367492,30,3809,1,49.498699,11.078056,Nuremberg Airport,Nuernberg,Germany,EDDN
428,40347.03840347596,53,3743,1,28.452699661254883,-13.863800048828123,Fuerteventura Airport,Fuerteventura,Spain,GCFV
262,40207.29819948787,50,3721,1,53.86589813232422,-1.6605700254440308,Leeds Bradford Airport,Leeds,United Kingdom,EGNM
1292,40058.62686577193,41,3689,1,-34.5592,-58.4156,Jorge Newbery Airpark,Buenos Aires,Argentina,SABE
372,40049.53882506747,21,3690,1,-33.9648017883,18.6016998291,Cape Town International Airport,Cape Town,South Africa,FACT
155,40046.32636853955,13,3701,1,47.618598938,-52.7518997192,St. John's International Airport,St. John's,Canada,CYYT
674,39857.97855289347,30,29644,1,42.94720077514648,-87.89659881591797,General Mitchell International Airport,Milwaukee,United States,KMKE
862,39856.803088002,22,3664,1,46.223701,14.4576,Ljubljana Jože Pučnik Airport,Ljubljana,Slovenia,LJLJ
1288,39846.9025066406,27,3659,1,10.307499885559,123.97899627686,Mactan Cebu International Airport,Cebu,Philippines,RPVM
1590,39822.35487692229,18,3655,1,16.043899536132812,108.1989974975586,Da Nang International Airport,Danang,Vietnam,VVDN
328,39758.85153381162,31,3648,1,63.4578018,10.9239998,Trondheim Airport Værnes,Trondheim,Norway,ENVA
1049,39584.1980713167,21,3616,1,-41.3272018433,174.804992676,Wellington International Airport,Wellington,New Zealand,NZWN
1516,39434.44036786489,17,3588,1,23.0771999359,72.63469696039999,Sardar Vallabhbhai Patel International Airport,Ahmedabad,India,VAAH
845,39256.09158525348,32,3565,1,39.251499,9.05428,Cagliari Elmas Airport,Cagliari,Italy,LIEE
1777,39209.95855547309,17,3554,1,36.5275,102.042999,Xining Caojiabu Airport,Xining,China,ZLXN
642,38981.379397219695,8,3525,1,32.3111991882,-90.0758972168,Jackson-Medgar Wiley Evers International Airport,Jackson,United States,KJAN
800,38842.45859069953,87,29863,1,43.6584014893,7.215869903560001,Nice-Côte d'Azur Airport,Nice,France,LFMN
1610,38805.5643776706,14,3486,1,-5.061629772186279,119.5540008544922,Hasanuddin International Airport,Ujung Pandang,Indonesia,WAAA
1512,38256.06156418963,55,3395,1,55.5914993286,37.2615013123,Vnukovo International Airport,Moscow,Russia,UUWW
846,37577.310595941424,30,3276,1,40.898701,9.51763,Olbia Costa Smeralda Airport,Olbia,Italy,LIEO
1569,37506.33237000669,17,3257,1,8.48211956024,76.9200973511,Trivandrum International Airport,Trivandrum,India,VOTV
127,37406.11044865324,13,3251,1,43.627499,-79.396202,Billy Bishop Toronto City Centre Airport,Toronto,Canada,CYTZ
1109,37352.6568004197,31,3231,1,31.5216007232666,74.40360260009766,Alama Iqbal International Airport,Lahore,Pakistan,OPLA
1630,37293.33325257072,11,3222,1,1.4846999645233154,110.34700012207033,Kuching International Airport,Kuching,Malaysia,WBGG
549,37145.51917808801,11,3204,26,41.88470077514648,-91.71080017089844,The Eastern Iowa Airport,Cedar Rapids,United States,KCID
184,37097.27852128338,39,3186,1,6.5773701667785645,3.321160078048706,Murtala Muhammed International Airport,Lagos,Nigeria,DNMM
1758,37060.90998166984,28,3180,1,22.006399,113.375999,Zhuhai Jinwan Airport,Zhuhai,China,ZGSD
1441,37008.58163258,21,3174,1,41.6692008972,44.95470047,Tbilisi International Airport,Tbilisi,Georgia,UGTB
1730,36830.64979756397,6,3138,1,-35.30690002441406,149.19500732421875,Canberra International Airport,Canberra,Australia,YSCB
708,36655.06687584051,37,30199,1,40.49150085,-80.23290253,Pittsburgh International Airport,Pittsburgh,United States,KPIT
434,36640.48403567303,14,3106,1,28.4827003479,-16.3414993286,Tenerife Norte Airport,Tenerife,Spain,GCXO
256,36425.021507127305,27,3066,1,49.20790100097656,-2.195509910583496,Jersey Airport,Jersey,Jersey,EGJJ
1361,36383.366853112966,22,3054,1,-0.129166666667,-78.3575,Mariscal Sucre International Airport,Quito,Ecuador,SEQM
1744,36253.62738801509,32,3031,1,38.28070068359375,114.6969985961914,Shijiazhuang Daguocun International Airport,Shijiazhuang,China,ZBSJ
600,36241.292177421485,10,3037,1,40.97850037,-85.19509888,Fort Wayne International Airport,Fort Wayne,United States,KFWA
1054,36167.77667640779,9,3013,1,18.2404003143,42.65660095210001,Abha Regional Airport,Abha,Saudi Arabia,OEAB
588,36066.52443641366,9,3004,1,44.12459945678711,-123.21199798583984,Mahlon Sweet Field,Eugene,United States,KEUG
284,36040.35772228175,28,2994,1,51.84130096435547,-8.491109848022461,Cork Airport,Cork,Ireland,EICK
727,36024.3469683568,6,2996,52,34.42620087,-119.8399963,Santa Barbara Municipal Airport,Santa Barbara,United States,KSBA
341,36004.32128984047,28,2987,1,51.1026992798,16.885799408,Copernicus Wrocław Airport,Wroclaw,Poland,EPWR
1475,35999.72356780664,29,2986,1,45.034698486328,39.170501708984,Krasnodar Pashkovsky International Airport,Krasnodar,Russia,URKK
628,35778.04262451643,12,2949,1,37.649899,-97.433098,Wichita Eisenhower National Airport,Wichita,United States,KICT
985,35716.62535220013,13,2937,1,10.5933,-85.544403,Daniel Oduber Quiros International Airport,Liberia,Costa Rica,MRLB
1180,35688.871447894046,17,2924,1,13.4834003448,144.796005249,Antonio B. Won Pat International Airport,Agana,Guam,PGUM
1429,35665.96826780946,30,2922,1,51.02220153808594,71.46690368652344,Astana International Airport,Tselinograd,Kazakhstan,UACC
958,35596.26246226946,10,2914,1,20.9935,-101.481003,Del Bajío International Airport,Del Bajio,Mexico,MMLO
1815,35565.43206342026,17,2900,1,31.4944000244,120.429000854,Sunan Shuofang International Airport,Wuxi,China,ZSWX
676,35426.136207001866,10,2881,43,41.44850158691406,-90.50749969482422,Quad City International Airport,Moline,United States,KMLI
1570,35342.94726913829,23,2855,1,4.191830158233643,73.52909851074219,Malé International Airport,Male,Maldives,VRMM
718,35307.81513371208,39,30455,1,35.87760162353516,-78.7874984741211,Raleigh Durham International Airport,Raleigh-durham,United States,KRDU
709,35165.60393399808,11,2830,1,30.473400115967,-87.186599731445,Pensacola Regional Airport,Pensacola,United States,KPNS
206,35099.16749838267,26,2812,1,51.423889,12.236389,Leipzig/Halle Airport,Leipzig,Germany,EDDP
1526,35078.57398139069,12,2802,1,18.58209991455078,73.9197006225586,Pune Airport,Pune,India,VAPO
1810,34941.9653125779,17,2778,1,24.7964,118.589996,Quanzhou Jinjiang International Airport,Quanzhou,China,ZSQZ
1480,34923.1468837315,15,2777,1,43.449902,39.9566,Sochi International Airport,Sochi,Russia,URSS
1651,34906.69036918293,12,2771,1,1.64131,103.669998,Senai International Airport,Johor Bahru,Malaysia,WMKJ
1468,34849.63124037933,44,2762,1,55.012599945068,82.650703430176,Tolmachevo Airport,Novosibirsk,Russia,UNNT
1378,34759.79326359349,18,2740,1,6.16454,-75.4231,Jose Maria Córdova International Airport,Rio Negro,Colombia,SKRG
906,34683.99020148892,26,2729,1,36.7131004333,28.7924995422,Dalaman International Airport,Dalaman,Turkey,LTBS
703,34588.5778825421,10,2715,48,40.664199829100006,-89.6932983398,General Wayne A. Downing Peoria International Airport,Peoria,United States,KPIA
1742,34581.66924328846,35,2706,1,39.78279876708984,116.38800048828124,Beijing Nanyuan Airport,Beijing,China,ZBNY
770,34577.970740943405,22,2708,1,42.89630126953125,-8.415140151977539,Santiago de Compostela Airport,Santiago,Spain,LEST
1761,34413.46085420402,13,2672,1,21.214399,110.358002,Zhanjiang Airport,Zhanjiang,China,ZGZJ
1370,34204.09107947159,8,2627,1,10.4424,-75.513,Rafael Nuñez International Airport,Cartagena,Colombia,SKCG
1200,34056.42264458606,19,2599,1,25.06940078735352,121.552001953125,Taipei Songshan Airport,Taipei,Taiwan,RCSS
1559,33964.50257659535,20,2578,1,27.6966,85.3591,Tribhuvan International Airport,Kathmandu,Nepal,VNKT
826,33937.86497577197,46,2577,1,36.405399322509766,28.086200714111328,Diagoras Airport,Rhodos,Greece,LGRP
2085,33532.450797307734,15,2492,1,53.504901885986,50.16429901123,Kurumoch International Airport,Samara,Russia,UWWW
282,33526.42905679545,54,2491,1,51.4500999451,5.37452983856,Eindhoven Airport,Eindhoven,Netherlands,EHEH
1098,33525.842083947,60,2486,1,25.32859992980957,55.5172004699707,Sharjah International Airport,Sharjah,United Arab Emirates,OMSJ
194,33502.76027536457,76,2486,1,50.459202,4.45382,Brussels South Charleroi Airport,Charleroi,Belgium,EBCI
197,33456.04091492473,17,2476,1,51.1328010559082,13.767200469970703,Dresden Airport,Dresden,Germany,EDDC
1618,33443.63908758295,9,2471,1,-1.26827001572,116.893997192,Sultan Aji Muhamad Sulaiman Airport,Balikpapan,Indonesia,WALL
1320,33426.10935655565,17,2464,1,-3.776279926300049,-38.53260040283203,Pinto Martins International Airport,Fortaleza,Brazil,SBFZ
869,33385.29900495741,11,2461,1,46.9911003112793,15.439599990844728,Graz Airport,Graz,Austria,LOWG
710,33354.00561920961,8,2459,49,46.26470184326172,-119.11900329589844,Tri Cities Airport,Pasco,United States,KPSC
1784,33293.023731234345,8,2439,1,21.9738998413086,100.76000213623048,Xishuangbanna Gasa Airport,Jinghonggasa,China,ZPJH
1504,33244.31103338905,48,2431,1,41.257900238,69.2811965942,Tashkent International Airport,Tashkent,Uzbekistan,UTTT
1681,32999.45359839237,10,2376,1,-19.252500534057617,146.76499938964844,Townsville Airport,Townsville,Australia,YBTL
1647,32999.45359839237,7,2376,1,6.166850090026856,102.29299926757812,Sultan Ismail Petra Airport,Kota Bahru,Malaysia,WMKC
740,32963.29413596112,7,2375,53,30.396499633789062,-84.35030364990234,Tallahassee Regional Airport,Tallahassee,United States,KTLH
922,32962.099416974364,24,2370,1,46.92770004272461,28.93099975585937,Chişinău International Airport,Chisinau,Moldova,LUKK
146,32931.04528004314,5,2368,1,43.035599,-81.1539,London Airport,London,Canada,CYXU
2068,32852.39545851479,20,2343,1,10.595399856567385,-61.33720016479492,Piarco International Airport,Port-of-spain,Trinidad and Tobago,TTPP
1322,32834.8784098043,10,2337,1,-16.631999969482422,-49.220699310302734,Santa Genoveva Airport,Goiania,Brazil,SBGO
247,32831.58211454731,43,2342,1,53.33359909057617,-2.849720001220703,Liverpool John Lennon Airport,Liverpool,United Kingdom,EGGP
1562,32785.23631091222,7,2327,1,11.029999733,77.0434036255,Coimbatore International Airport,Coimbatore,India,VOCB
507,32711.1802436164,7,2320,12,44.2580986023,-88.5190963745,Appleton International Airport,Appleton,United States,KATW
1552,32705.73039577152,9,2310,1,26.7605991364,80.8892974854,Chaudhary Charan Singh International Airport,Lucknow,India,VILK
511,32679.30073136099,8,2313,13,35.43619918823242,-82.54180145263672,Asheville Regional Airport,Asheville,United States,KAVL
1341,32657.232305769783,18,2299,1,-8.126489639282227,-34.92359924316406,Guararapes - Gilberto Freyre International Airport,Recife,Brazil,SBRF
599,32647.467821136324,9,2306,31,43.5820007324,-96.741897583,Joe Foss Field Airport,Sioux Falls,United States,KFSD
1578,32645.88127135087,8,2299,1,9.547789573669998,100.06199646,Samui Airport,Ko Samui,Thailand,VTSM
266,32535.413962923096,53,2277,1,52.8311004639,-1.32806003094,East Midlands Airport,East Midlands,United Kingdom,EGNX
1358,32457.17846637794,18,2256,1,-2.15741991997,-79.88359832760001,José Joaquín de Olmedo International Airport,Guayaquil,Ecuador,SEGU
592,32135.528434299125,8,2192,1,24.55610084533692,-81.75959777832031,Key West International Airport,Key West,United States,KEYW
89,32077.91569222888,7,2179,1,56.653301239,-111.222000122,Fort McMurray Airport,Fort Mcmurray,Canada,CYMM
387,32052.03253229216,26,2166,1,-20.430201,57.683601,Sir Seewoosagur Ramgoolam International Airport,Plaisance,Mauritius,FIMP
837,32051.81090850357,21,2169,1,38.905399,16.2423,Lamezia Terme Airport,Lamezia,Italy,LICA
1564,31992.0398969818,16,2151,1,11.1367998123,75.95529937740001,Calicut International Airport,Calicut,India,VOCL
512,31941.155387019782,5,2148,14,41.3385009766,-75.72339630130001,Wilkes Barre Scranton International Airport,Scranton,United States,KAVP
1002,31906.00444043907,10,2140,1,26.5587005615,-78.695602417,Grand Bahama International Airport,Freeport,Bahamas,MYGF
26,31714.83174259724,16,2092,1,42.5728,21.035801,Priština International Airport,Pristina,Serbia,BKPR
1401,31687.390056665303,35,2083,1,10.601194,-66.991222,Simón Bolívar International Airport,Caracas,Venezuela,SVMI
1515,31604.93188700842,13,2067,1,55.606201171875,49.278701782227,Kazan International Airport,Kazan,Russia,UWKD
1733,31539.994606860197,81,31343,1,-33.94609832763672,151.177001953125,Sydney Kingsford Smith International Airport,Sydney,Australia,YSSY
524,31492.987161248064,9,2045,1,48.79280090332031,-122.53800201416016,Bellingham International Airport,Bellingham,United States,KBLI
1829,31475.80692152232,13,2035,1,29.2978000641,90.9119033813,Lhasa Gonggar Airport,Lhasa,China,ZULS
679,31475.77330206845,6,2041,45,36.58700180053711,-121.84300231933594,Monterey Peninsula Airport,Monterey,United States,KMRY
294,31427.93160717253,12,2026,1,57.0927589138,9.84924316406,Aalborg Airport,Aalborg,Denmark,EKYT
717,31402.77169784607,6,2024,51,44.2541008,-121.1500015,Roberts Field,Redmond-Bend,United States,KRDM
1313,31363.54146456778,16,2006,1,-15.6528997421,-56.1166992188,Marechal Rondon Airport,Cuiaba,Brazil,SBCY
1083,31309.375468857324,31,1994,1,35.68920135498047,51.31340026855469,Mehrabad International Airport,Teheran,Iran,OIII
252,31307.90577059837,21,1998,1,50.95029830932617,-1.3567999601364136,Southampton Airport,Southampton,United Kingdom,EGHI
977,31240.507583185376,5,1986,1,16.5636005402,-93.0224990845,Angel Albino Corzo International Airport,Tuxtla Gutierrez,Mexico,MMTG
1705,31214.323654901124,5,1974,1,-41.54529953,147.214004517,Launceston Airport,Launceston,Australia,YMLT
934,31203.465635949444,13,1977,1,15.4526,-87.923599,Ramón Villeda Morales International Airport,San Pedro Sula,Honduras,MHLM
481,31136.169367214028,21,1954,1,15.589500427246094,32.553199768066406,Khartoum International Airport,Khartoum,Sudan,HSSS
326,31095.27608060773,19,1948,1,69.68329620361328,18.91889953613281,"Tromsø Airport,",Tromso,Norway,ENTC
767,31048.95153664417,25,1937,1,39.86259841918945,4.218649864196777,Menorca Airport,Menorca,Spain,LEMH
669,30965.85284171753,7,1921,42,42.37419891357422,-122.8730010986328,Rogue Valley International Medford Airport,Medford,United States,KMFR
836,30926.72682245863,18,1908,1,40.6576,17.947001,Brindisi – Salento Airport,Brindisi,Italy,LIBR
850,30905.44688732682,16,1903,1,44.4133,8.8375,Genoa Cristoforo Colombo Airport,Genoa,Italy,LIMJ
289,30902.499332910094,25,1903,1,52.702,-8.92482,Shannon Airport,Shannon,Ireland,EINN
608,30890.435189319487,4,1903,33,44.48509979248047,-88.12960052490234,Austin Straubel International Airport,Green Bay,United States,KGRB
1426,30879.63052370373,33,1900,1,18.0410003662,-63.1088981628,Princess Juliana International Airport,Philipsburg,Netherlands Antilles,TNCM
939,30857.004685006752,7,1895,1,21.705601,-102.318001,Jesús Terán Paredo International Airport,Aguascalientes,Mexico,MMAS
1631,30784.38545900644,9,1872,1,4.322010040283203,113.98699951171876,Miri Airport,Miri,Malaysia,WBGR
1008,30729.150822133783,20,1859,1,-17.755399703979492,177.4429931640625,Nadi International Airport,Nandi,Fiji,NFFN
920,30726.26901413801,17,1860,1,37.25059890749999,27.6643009186,Milas Bodrum International Airport,Bodrum,Turkey,LTFE
857,30726.26901413801,41,1860,1,41.7994,12.5949,Ciampino–G. B. Pastine International Airport,Rome,Italy,LIRA
564,30694.805905062614,8,1856,1,38.37310028076172,-81.59320068359375,Yeager Airport,Charleston,United States,KCRW
273,30671.617067801297,83,31520,1,55.95000076293945,-3.372499942779541,Edinburgh Airport,Edinburgh,United Kingdom,EGPH
2195,30669.96584911729,12,1850,1,17.539100646972656,-88.30819702148438,Philip S. W. Goldson International Airport,Belize City,Belize,MZBZ
630,30661.69253400953,5,1848,36,34.270599365234375,-77.90260314941406,Wilmington International Airport,Wilmington,United States,KILM
2177,30636.89267398974,3,1842,3,32.30059814,-86.39399719,Montgomery Regional (Dannelly Field) Airport,MONTGOMERY,United States,KMGM
2197,30591.50437936619,8,1831,1,33.663601,-101.822998,Lubbock Preston Smith International Airport,Lubbock,United States,KLBB
947,30509.238339954605,9,1811,1,28.702899932900003,-105.964996338,General Roberto Fierro Villalobos International Airport,Chihuahua,Mexico,MMCU
742,30492.087059690613,17,1803,1,41.4146995544,19.7206001282,Tirana International Airport Mother Teresa,Tirana,Albania,LATI
822,30491.150337078758,36,1803,1,39.601898193359375,19.911699295043945,Ioannis Kapodistrias International Airport,Kerkyra/corfu,Greece,LGKR
2257,30476.424858879927,8,1803,1,19.1459007263,-96.1873016357,General Heriberto Jara International Airport,Vera Cruz,Mexico,MMVR
2287,30420.680893369856,9,1786,1,48.447898864746094,-4.418540000915527,Brest Bretagne Airport,Brest,France,LFRB
1251,30314.112818705104,15,1758,1,38.1397018433,140.917007446,Sendai Airport,Sendai,Japan,RJSS
791,30314.09126845153,21,1760,1,42.55270004272461,9.48373031616211,Bastia-Poretta Airport,Bastia,France,LFKB
1367,30301.47420171897,6,1753,1,10.8896,-74.7808,Ernesto Cortissoz International Airport,Barranquilla,Colombia,SKBQ
496,30284.710954895338,3,1756,11,33.36989974975586,-81.9645004272461,Augusta Regional At Bush Field,Bush Field,United States,KAGS
2193,30284.710954895338,5,1756,9,30.4832,-86.525398,Destin-Ft Walton Beach Airport,Valparaiso,United States,KVPS
2185,30276.59309724332,5,1754,5,32.446602,-93.8256,Shreveport Regional Airport,Shreveport,United States,KSHV
989,30214.08393574926,13,1736,1,18.57999992370605,-72.2925033569336,Toussaint Louverture International Airport,Port-au-prince,Haiti,MTPP
1577,30196.40663703272,6,1729,1,8.09912014008,98.9861984253,Krabi Airport,Krabi,Thailand,VTSG
1318,30190.53481456807,8,1725,1,-27.670278549194336,-48.5525016784668,Hercílio Luz International Airport,Florianopolis,Brazil,SBFL
912,30188.99098461436,6,1729,1,40.99509811401367,39.78969955444336,Trabzon International Airport,Trabzon,Turkey,LTCG
1538,30143.444995682134,12,1714,1,26.10610008239746,91.58589935302734,Lokpriya Gopinath Bordoloi International Airport,Guwahati,India,VEGT
2069,30103.981325113506,8,1711,1,32.36399841308594,-64.67870330810547,L.F. Wade International International Airport,Bermuda,Bermuda,TXKF
1580,30099.37499795529,5,1705,1,6.93320989609,100.392997742,Hat Yai International Airport,Hat Yai,Thailand,VTSS
1702,30083.248467235982,3,1701,1,-42.836101532,147.509994507,Hobart International Airport,Hobart,Australia,YMHB
1737,30079.21885651045,19,1700,1,39.49,109.861388889,Ordos Ejin Horo Airport,Dongsheng,China,ZBDS
1640,30079.21885651045,10,1700,1,1.12102997303,104.119003296,Hang Nadim International Airport,Batam,Indonesia,WIDD
1792,30018.87157664585,15,1685,1,31.919701,119.778999,Changzhou Benniu Airport,Changzhou,China,ZSCG
968,30014.53021373923,5,1689,1,16.9999008179,-96.726600647,Xoxocotlán International Airport,Oaxaca,Mexico,MMOX
1230,29970.724216430863,9,1673,1,36.39459991455078,136.40699768066406,Komatsu Airport,Kanazawa,Japan,RJNK
794,29898.71639158268,21,1657,1,41.92359924316406,8.8029203414917,Ajaccio-Napoléon Bonaparte Airport,Ajaccio,France,LFKJ
827,29895.911322766,37,1656,1,35.531700134277344,24.14970016479492,Chania International Airport,Chania,Greece,LGSA
173,29853.09969630112,24,1645,1,5.605189800262451,-0.1667860001325607,Kotoka International Airport,Accra,Ghana,DGAA
1269,29850.860608632836,7,1643,1,24.396389,124.245,New Ishigaki Airport,Ishigaki,Japan,ROIG
201,29808.455344887192,84,31733,1,53.630401611328,9.9882297515869,Hamburg Airport,Hamburg,Germany,EDDH
234,29803.23724731584,18,1633,1,54.61809921264648,-5.872499942779541,George Best Belfast City Airport,Belfast,United Kingdom,EGAC
404,29757.86874661381,34,1619,1,-8.85837,13.2312,Quatro de Fevereiro Airport,Luanda,Angola,FNLU
604,29720.30426538956,6,1615,32,39.1223983765,-108.527000427,Grand Junction Regional Airport,Grand Junction,United States,KGJT
1467,29713.14131515834,21,1610,1,56.172901,92.493301,Yemelyanovo Airport,Krasnoyarsk,Russia,UNKL
982,29704.523626110687,7,1611,1,17.996999740600586,-92.81739807128906,Carlos Rovirosa Pérez International Airport,Villahermosa,Mexico,MMVA
677,29704.523626110687,5,1611,44,30.691200256348,-88.242797851562,Mobile Regional Airport,Mobile,United States,KMOB
715,29692.696397295545,7,1608,50,44.0452995300293,-103.05699920654295,Rapid City Regional Airport,Rapid City,United States,KRAP
139,29676.937749023764,9,1604,1,52.17079925537109,-106.6999969482422,Saskatoon John G. Diefenbaker International Airport,Saskatoon,Canada,CYXE
1615,29648.733871070563,9,1592,1,-8.757322,116.276675,Lombok International Airport,Praya,Indonesia,WADL
638,29625.80873241809,8,1591,1,40.79520035,-73.10019684,Long Island Mac Arthur Airport,Islip,United States,KISP
334,29579.713577897783,26,1576,1,50.4743,19.08,Katowice International Airport,Katowice,Poland,EPKT
486,29563.061982571457,9,1575,1,40.652099609375,-75.44080352783203,Lehigh Valley International Airport,Allentown,United States,KABE
521,29559.14693448862,12,1574,17,45.80770111083984,-108.54299926757812,Billings Logan International Airport,Billings,United States,KBIL
1060,29549.73822509348,4,1565,1,16.901100158691406,42.58580017089844,Jizan Regional Airport,Gizan,Saudi Arabia,OEGN
2304,29532.070601951546,16,1564,1,54.557498931885,55.874401092529,Ufa International Airport,Ufa,Russia,UWUU
526,29523.94648834948,8,1565,18,40.47710037,-88.91590118,Central Illinois Regional Airport at Bloomington-Normal,Bloomington,United States,KBMI
167,29457.442115800077,23,1545,1,35.6239013672,-0.6211829781529999,Es Senia Airport,Oran,Algeria,DAOO
366,29438.30608071601,15,1540,1,59.354400634765625,17.941699981689453,Stockholm-Bromma Airport,Stockholm,Sweden,ESSB
937,29424.456897520304,18,1539,1,17.935699462890625,-76.7874984741211,Norman Manley International Airport,Kingston,Jamaica,MKJP
1220,29401.8654208231,12,1529,1,31.80340003967285,130.718994140625,Kagoshima Airport,Kagoshima,Japan,RJFK
2264,29395.41493985103,4,1532,10,38.50899887,-122.8130035,Charles M. Schulz Sonoma County Airport,Santa Rosa,United States,KSTS
485,29323.56239896419,15,1508,1,0.042386,32.443501,Entebbe International Airport,Entebbe,Uganda,HUEN
1878,29306.328297440003,9,1509,56,41.70869827270508,-86.31729888916016,South Bend Regional Airport,South Bend,United States,KSBN
1234,29297.006145248084,9,1502,1,34.4361000061,132.919006348,Hiroshima Airport,Hiroshima,Japan,RJOA
2184,29271.578569711688,9,1500,7,37.24570084,-93.38860321,Springfield Branson National Airport,Springfield,United States,KSGF
1549,29226.421931373043,9,1482,1,26.8242,75.812202,Jaipur International Airport,Jaipur,India,VIJP
1718,29173.452154775063,19,1470,1,-12.41469955444336,130.8769989013672,Darwin International Airport,Darwin,Australia,YPDN
1821,29169.603674874303,11,1469,1,29.3446998596,120.031997681,Yiwu Airport,Yiwu,China,ZSYW
462,29133.66108246302,24,1461,1,27.178300857543945,33.799400329589844,Hurghada International Airport,Hurghada,Egypt,HEGN
1301,29112.61466463179,15,1452,1,-1.3792500495900002,-48.4762992859,Val de Cans/Júlio Cezar Ribeiro International Airport,Belem,Brazil,SBBE
808,29082.97771661393,30,1448,1,50.563332,3.086886,Lille-Lesquin Airport,Lille,France,LFQQ
983,29079.6458480524,8,1450,1,12.14150047302246,-86.16819763183594,Augusto C. Sandino (Managua) International Airport,Managua,Nicaragua,MNMG
535,29056.74091143314,4,1444,19,30.533199,-91.149597,Baton Rouge Metropolitan Airport,Baton Rouge,United States,KBTR
1405,29015.40589712556,16,1428,1,13.0746002197,-59.4925003052,Sir Grantley Adams International Airport,Bridgetown,Barbados,TBPB
377,29013.220236231227,11,1427,1,-29.6144444444,31.1197222222,King Shaka International Airport,Durban,South Africa,FALE
1316,29012.09635062325,15,1426,1,-3.038609981536865,-60.04970169067383,Eduardo Gomes International Airport,Manaus,Brazil,SBEG
764,29007.23669310169,13,1428,1,36.74459838867188,-6.060110092163086,Jerez Airport,Jerez,Spain,LEJR
1657,28989.579275572985,9,1422,1,3.130579948425293,101.54900360107422,Sultan Abdul Aziz Shah International Airport,Kuala Lumpur,Malaysia,WMSA
459,28978.997789290548,19,1418,1,30.917699813842773,29.696399688720703,Borg El Arab International Airport,Alexandria,Egypt,HEBA
773,28938.08506164334,16,1410,1,43.42710113525391,-3.82000994682312,Santander Airport,Santander,Spain,LEXJ
1199,28924.873662166312,4,1405,1,23.56870079040528,119.62799835205078,Makung Airport,Makung,Taiwan,RCQC
2271,28922.40805673459,12,1407,1,-34.838402,-56.0308,Carrasco International /General C L Berisso Airport,Montevideo,Uruguay,SUMU
829,28899.2799761276,10,1400,1,36.399200439453125,25.47929954528809,Santorini Airport,Thira,Greece,LGSR
513,28897.161779465256,4,1402,15,42.234901428222656,-85.5521011352539,Kalamazoo Battle Creek International Airport,Kalamazoo,United States,KAZO
1086,28896.44375993482,32,1396,1,36.235198974609375,59.64099884033203,Mashhad International Airport,Mashhad,Iran,OIMM
936,28889.59560413585,10,1400,1,14.06089973449707,-87.21720123291016,Toncontín International Airport,Tegucigalpa,Honduras,MHTG
1877,28889.59560413585,9,1400,55,37.3255,-79.975403,Roanoke–Blacksburg Regional Airport,Roanoke VA,United States,KROA
337,28840.70537173717,17,1384,1,52.4210014343,16.8262996674,Poznań-Ławica Airport,Poznan,Poland,EPPO
491,28836.71552380516,6,1386,1,41.25310135,-70.06020355,Nantucket Memorial Airport,Nantucket,United States,KACK
2421,28833.892160711457,6,1381,1,42.8828010559,129.451004028,Yanji Chaoyangchuan Airport,Yanji,China,ZYYJ
886,28779.19569283649,12,1368,1,43.82460021972656,18.331499099731445,Sarajevo International Airport,Sarajevo,Bosnia and Herzegovina,LQSA
660,28772.69905340146,4,1369,39,43.532901763916016,-84.07959747314453,MBS International Airport,Saginaw,United States,KMBS
975,28746.401305468997,5,1362,1,22.254299163800003,-100.930999756,Ponciano Arriaga International Airport,San Luis Potosi,Mexico,MMSP
901,28730.280580075927,5,1355,1,38.770401001,35.4953994751,Kayseri Erkilet Airport,Kayseri,Turkey,LTAU
873,28629.516335527205,18,1328,1,47.7933006287,13.0043001175,Salzburg Airport,Salzburg,Austria,LOWS
1117,28589.143640921506,17,1317,1,36.23759841918945,43.96319961547852,Erbil International Airport,Erbil,Iraq,ORER
483,28582.710415487512,19,1313,1,-6.87811,39.202599,Julius Nyerere International Airport,Dar Es Salaam,Tanzania,HTDA
2468,28544.79489449902,9,1302,1,-20.258057,-40.286388,Eurico de Aguiar Salles Airport,Vitoria,Brazil,SBVT
887,28517.270693081744,17,1298,1,46.78519821166992,23.686199188232425,Cluj-Napoca International Airport,Cluj-napoca,Romania,LRCL
1274,28511.37027081938,7,1295,1,7.1255202293396,125.64600372314452,Francisco Bangoy International Airport,Davao,Philippines,RPMD
1445,28506.786825750223,15,1294,1,43.39899826049805,132.1479949951172,Vladivostok International Airport,Vladivostok,Russia,UHWW
327,28506.12527657843,25,1295,1,59.1866989136,10.258600235,"Sandefjord Airport, Torp",Sandefjord,Norway,ENTO
1197,28477.93061778181,18,1286,1,24.26469993591309,120.62100219726562,Taichung Ching Chuang Kang Airport,Taichung,Taiwan,RCMQ
1495,28457.90383135283,15,1282,1,57.1896018982,65.3243026733,Roshchino International Airport,Tyumen,Russia,USTR
811,28454.19955422089,23,1281,1,48.53829956054688,7.628230094909668,Strasbourg Airport,Strasbourg,France,LFST
217,28443.09105769378,24,1278,1,51.51829910279999,7.61223983765,Dortmund Airport,Dortmund,Germany,EDLW
1404,28408.23948697626,19,1267,1,17.1367,-61.792702,V.C. Bird International Airport,Antigua,Antigua and Barbuda,TAPA
1743,28377.963327973903,17,1259,1,40.560001373291016,109.99700164794922,Baotou Airport,Baotou,China,ZBOW
1514,28347.868711877643,13,1252,1,56.230098724365,43.784000396729,Nizhny Novgorod Strigino International Airport,Nizhniy Novgorod,Russia,UWGG
755,28336.043197922478,14,1249,1,36.84389877319336,-2.3701000213623047,Almería International Airport,Almeria,Spain,LEAM
883,28321.14218554436,17,1245,1,37.7411994934,-25.6979007721,João Paulo II Airport,Ponta Delgada,Portugal,LPPD
1477,28317.647709930792,13,1244,1,44.22510147094727,43.08190155029297,Mineralnyye Vody Airport,Mineralnye Vody,Russia,URMM
2578,28311.61015817205,4,1241,1,17.386400222800003,102.788002014,Udon Thani Airport,Udon Thani,Thailand,VTUD
953,28293.80176908688,9,1240,1,29.095899581900003,-111.047996521,General Ignacio P. Garcia International Airport,Hermosillo,Mexico,MMHO
1235,28293.219955969103,7,1236,1,34.7569007874,133.854995728,Okayama Airport,Okayama,Japan,RJOB
1654,28282.194420638265,5,1233,1,6.329730033874512,99.72869873046876,Langkawi International Airport,Langkawi,Malaysia,WMKL
972,28260.83762353644,5,1231,1,20.6173,-100.185997,Querétaro Intercontinental Airport,Queretaro,Mexico,MMQT
2267,28253.52008519876,3,1229,1,19.721399307250977,-155.04800415039062,Hilo International Airport,Hilo,United States,PHTO
2555,28247.185392765085,5,1222,1,33.987098693847656,74.77420043945312,Sheikh ul Alam Airport,Srinagar,India,VISR
582,28238.893536382013,5,1225,1,30.357106,-85.795414,Northwest Florida Beaches International Airport,Panama City,United States,KECP
1644,28212.515221122576,5,1214,1,-2.8982501029968,104.69999694824,Sultan Mahmud Badaruddin II Airport,Palembang,Indonesia,WIPP
540,28202.37684151606,7,1215,21,45.77750015,-111.1529999,Gallatin Field,Bozeman,United States,KBZN
1966,28200.393039671148,12,1212,1,42.359402,19.2519,Podgorica Airport,Podgorica,Montenegro,LYPG
1676,28168.639689166343,5,1202,1,-21.171699523900003,149.179992676,Mackay Airport,Mackay,Australia,YBMK
1749,28157.68677336815,13,1199,1,21.5394,109.293999,Beihai Airport,Beihai,China,ZGBH
681,28155.010987551108,7,1202,46,46.91630173,-114.0910034,Missoula International Airport,Missoula,United States,KMSO
1787,28146.740234534624,4,1196,1,24.4011,98.5317,Mangshi Airport,Luxi,China,ZPLX
646,28122.28914351587,5,1193,37,42.77870178222656,-84.58740234375,Capital City Airport,Lansing,United States,KLAN
756,28112.71587943407,10,1188,1,43.5635986328125,-6.0346198081970215,Asturias Airport,Aviles,Spain,LEAS
1617,28103.017749970524,8,1184,1,-2.5769500733,140.5160064698,Sentani International Airport,Jayapura,Indonesia,WAJJ
279,28101.817733578828,18,1185,1,50.73440170288086,-3.4138898849487305,Exeter International Airport,Exeter,United Kingdom,EGTE
547,28089.62433858954,6,1184,25,38.13859939575195,-78.4529037475586,Charlottesville Albemarle Airport,Charlottesville VA,United States,KCHO
931,28021.883671510383,8,1165,1,19.406099319458008,-70.60469818115234,Cibao International Airport,Santiago,Dominican Republic,MDST
245,27971.50671732593,18,1149,1,51.39670181274414,-3.343329906463623,Cardiff International Airport,Cardiff,United Kingdom,EGFF
1523,27959.36284382775,7,1143,1,22.7217998505,75.8011016846,Devi Ahilyabai Holkar Airport,Indore,India,VAID
1209,27954.397546084838,6,1143,1,41.7700004578,140.822006226,Hakodate Airport,Hakodate,Japan,RJCH
107,27952.332089031643,7,1146,1,46.11220169067383,-64.67859649658203,Greater Moncton International Airport,Moncton,Canada,CYQM
556,27927.151276204087,2,1139,27,40.03919983,-88.27809906,University of Illinois Willard Airport,Champaign,United States,KCMI
109,27873.306895850143,7,1124,1,50.43190002441406,-104.66600036621094,Regina International Airport,Regina,Canada,CYQR
1557,27867.945888662656,14,1119,1,17.988300323500003,102.56300354,Wattay International Airport,Vientiane,Laos,VLVT
1841,27839.217633127577,4,1111,1,39.5429000854,76.0199966431,Kashgar Airport,Kashi,China,ZWSH
336,27827.657609708192,21,1109,1,52.451099,20.6518,Modlin Airport,Warsaw,Poland,EPMO
1115,27824.82985427702,34,1106,1,33.616699,73.099197,Benazir Bhutto International Airport,Islamabad,Pakistan,OPRN
1334,27823.80244664008,6,1105,1,-9.510809898376465,-35.79169845581055,Zumbi dos Palmares Airport,Maceio,Brazil,SBMO
518,27816.044433345684,6,1108,16,44.80739974975586,-68.8281021118164,Bangor International Airport,Bangor,United States,KBGR
938,27748.27426780301,5,1089,1,16.757099151611328,-99.75399780273438,General Juan N Alvarez International Airport,Acapulco,Mexico,MMAA
16,27735.44864376104,30,1082,1,-9.44338035583496,147.22000122070312,Port Moresby Jacksons International Airport,Port Moresby,Papua New Guinea,AYPY
668,27719.813572519783,4,1081,41,26.17580032,-98.23860168,Mc Allen Miller International Airport,Mcallen,United States,KMFE
1491,27684.914376788147,4,1069,1,57.914501190186,56.021198272705,Bolshoye Savino Airport,Perm,Russia,USPP
1424,27667.716361252857,17,1066,1,12.1889,-68.959801,Hato International Airport,Willemstad,Netherlands Antilles,TNCC
1382,27662.43855202712,13,1060,1,-16.5132999420166,-68.19229888916016,El Alto International Airport,La Paz,Bolivia,SLLP
1287,27561.426417696253,7,1033,1,10.833017,122.493358,Iloilo International Airport,Iloilo,Philippines,RPVI
300,27493.945205270757,14,1015,1,67.26920318603516,14.365300178527832,Bodø Airport,Bodo,Norway,ENBO
219,27490.73703638651,8,1014,1,47.6712989807,9.51148986816,Friedrichshafen Airport,Friedrichshafen,Germany,EDNY
1483,27483.393745836893,8,1012,1,55.305801,61.5033,Chelyabinsk Balandino Airport,Chelyabinsk,Russia,USCC
1377,27473.320101769383,4,1007,1,4.81267,-75.7395,Matecaña International Airport,Pereira,Colombia,SKPE
1293,27453.649123200983,10,1001,1,-31.323601,-64.208,Ingeniero Ambrosio Taravella Airport,Cordoba,Argentina,SACO
1386,27434.79801412393,11,996,1,-17.6448,-63.135399,Viru Viru International Airport,Santa Cruz,Bolivia,SLVR
346,27402.70046248856,30,989,1,58.78860092163086,16.912200927734375,Stockholm Skavsta Airport,Stockholm,Sweden,ESKN
1747,27378.532185306125,15,981,1,35.116391,111.031388889,Yuncheng Guangong Airport,Yuncheng,China,ZBYC
1194,27364.538740887245,4,977,1,24.4279,118.359001,Kinmen Airport,Kinmen,Taiwan,RCBS
748,27360.74050104861,23,977,1,34.71799850463867,32.48569869995117,Paphos International Airport,Paphos,Cyprus,LCPH
1830,27354.050685536648,15,974,1,31.4281005859375,104.74099731445312,Mianyang Airport,Mianyang,China,ZUMY
476,27346.517028184637,16,971,1,-1.96863,30.1395,Kigali International Airport,Kigali,Rwanda,HRYR
803,27339.796620968173,48,971,1,49.45439910888672,2.1127800941467285,Paris Beauvais Tillé Airport,Beauvais,France,LFOB
895,27332.820666764,8,969,1,36.9822006226,35.2803993225,Adana Airport,Adana,Turkey,LTAF
1751,27329.60195506704,12,967,1,29.1028,110.443001,Dayong Airport,Dayong,China,ZGDY
2216,27325.920870106675,7,969,1,31.9424991607666,-102.2020034790039,Midland International Airport,Midland,United States,KMAF
1344,27313.693070384452,10,961,1,-5.768056,-35.376111,Governador Aluízio Alves International Airport,Natal,Brazil,SBSG
1069,27311.949373095635,7,961,1,28.3654,36.6189,Tabuk Airport,Tabuk,Saudi Arabia,OETB
897,27304.943509460463,5,961,1,36.9472007751,37.4786987305,Gaziantep International Airport,Gaziantep,Turkey,LTAJ
502,27294.63398171479,6,960,1,35.219398,-101.706001,Rick Husband Amarillo International Airport,Amarillo,United States,KAMA
2328,27289.17838535051,7,954,1,12.5836,-81.7112,Gustavo Rojas Pinilla International Airport,San Andres Island,Colombia,SKSP
1137,27280.74595169426,18,956,54,64.81510162,-147.8560028,Fairbanks International Airport,Fairbanks,United States,PAFA
699,27277.27560122884,4,955,47,37.13190079,-76.49299622,Newport News Williamsburg International Airport,Newport News,United States,KPHF
996,27266.868524028712,6,952,1,26.5114,-77.083503,Leonard M Thompson International Airport,Marsh Harbor,Bahamas,MYAM
923,27263.20760277767,20,949,1,41.961601,21.621401,Skopje Alexander the Great Airport,Skopje,Macedonia,LWSK
255,27259.73392693604,14,948,1,49.435001373291016,-2.601969957351685,Guernsey Airport,Guernsey,Guernsey,EGJB
963,27246.07223834533,7,946,1,19.849899292,-101.025001526,General Francisco J. Mujica International Airport,Morelia,Mexico,MMMM
1070,27245.48128987469,9,942,1,21.483001,40.543442,Ta’if Regional Airport,Taif,Saudi Arabia,OETF
175,27240.46362485093,21,941,1,9.006790161132812,7.263169765472412,Nnamdi Azikiwe International Airport,Abuja,Nigeria,DNAA
961,27235.683020771987,8,943,1,20.9370002747,-89.657699585,Licenciado Manuel Crescencio Rejon Int Airport,Merida,Mexico,MMMD
2638,27221.72140392956,13,936,1,27.5895,107.0007,Zunyi Xinzhou Airport,Zunyi,China,ZUZY
446,27155.269070169983,12,918,1,35.726898193400004,-5.91689014435,Ibn Batouta Airport,Tanger,Morocco,GMTT
2091,27152.378122388174,13,917,1,49.8125,23.956100463867188,Lviv International Airport,Lvov,Ukraine,UKLL
1247,27149.002965310385,5,915,1,39.6156005859375,140.218994140625,Akita Airport,Akita,Japan,RJSK
819,27145.918487019637,26,915,1,36.79330062866211,27.091699600219727,Kos Airport,Kos,Greece,LGKO
2419,27145.547441530067,3,914,1,24.7828006744,125.294998169,Miyako Airport,Miyako,Japan,ROMY
1307,27136.633410751965,8,910,1,-20.4687004089,-54.6725006104,Campo Grande Airport,Campo Grande,Brazil,SBCG
