id,lat,lng,Name,City,Country,Label,degree,weighted_degree,component
1026,-15.505000114399998,167.220001221,Santo Pekoa International Airport,Santo,Vanuatu,NVSS,9,87,77
2163,-2.4444899559021,32.932701110839844,Mwanza Airport,Mwanza,Tanzania,HTMW,3,82,73
1114,30.251399993896484,66.93779754638672,Quetta International Airport,Quetta,Pakistan,OPQT,5,78,70
383,-4.816030025482178,11.88659954071045,Pointe Noire Airport,Pointe-noire,Congo (Brazzaville),FCPP,5,77,69
2154,9.3325,42.9121,Wilwal International Airport,Jijiga,Ethiopia,HAJJ,2,77,71
169,31.917200088500977,5.412779808044434,Ain el Beida Airport,Ouargla,Algeria,DAUU,6,75,66
657,39.10329819,-84.41860199,Cincinnati Municipal Airport Lunken Field,Cincinnati,United States,KLUK,3,73,68
392,-12.998100280762,28.66489982605,Simon Mwansa Kapwepwe International Airport,Ndola,Zambia,FLND,4,71,64
456,2.014440059661865,45.3046989440918,Aden Adde International Airport,Mogadishu,Somalia,HCMM,4,71,61
1127,55.20610046386719,-162.72500610351562,Cold Bay Airport,Cold Bay,United States,PACD,3,59,58
2400,62.0605011,-163.302002,St Mary's Airport,St Mary's,United States,PASM,2,58,57
2031,52.282501220703125,-81.67780303955078,Kashechewan Airport,Kashechewan,Canada,CZKE,2,56,36
1697,-23.4342002869,144.279998779,Longreach Airport,Longreach,Australia,YLRE,4,53,76
1364,0.505228,-76.5008,Tres De Mayo Airport,Puerto Asis,Colombia,SKAS,3,51,44
820,35.4213981628418,27.145999908447266,Karpathos Airport,Karpathos,Greece,LGKP,4,51,47
473,-1.321720004081726,36.81480026245117,Nairobi Wilson Airport,Nairobi,Kenya,HKNW,4,48,43
93,50.18999862670898,-61.78919982910156,Natashquan Airport,Natashquan,Canada,CYNA,3,47,42
1902,-8.795599937438965,-140.22900390625,Nuku Hiva Airport,Nuku Hiva,French Polynesia,NTMD,3,47,53
2002,-8.09778022766,156.863998413,Nusatupe Airport,Gizo,Solomon Islands,AGGN,5,45,72
1916,6.985099792480469,158.20899963378906,Pohnpei International Airport,Pohnpei,Micronesia,PTPN,3,44,59
1175,67.0086975098,-146.365997314,Venetie Airport,Venetie,United States,PAVE,2,44,39
471,-3.2293100357055664,40.10169982910156,Malindi Airport,Malindi,Kenya,HKML,3,44,41
1141,66.88809967041,-157.16200256348,Shungnak Airport,Shungnak,United States,PAGH,3,43,75
1164,66.9123001099,-156.897003174,Kobuk Airport,Kobuk,United States,PAOB,3,42,75
2501,-4.19355,-69.9432,Alfredo Vásquez Cobo International Airport,Leticia,Colombia,SKLT,2,40,34
2053,64.909697,-125.572998,Tulita Airport,Tulita,Canada,CZFN,2,39,60
37,52.9275016784668,-82.43190002441406,Attawapiskat Airport,Attawapiskat,Canada,CYAT,2,39,36
135,65.21109771728516,-123.43599700927734,Déline Airport,Deline,Canada,CYWJ,2,38,60
1711,-16.662500381469727,139.17799377441406,Mornington Island Airport,Mornington Island,Australia,YMTI,3,38,62
117,51.06689834594727,-93.79309844970705,Red Lake Airport,Red Lake,Canada,CYRL,4,37,30
2026,70.7341995239,-52.6962013245,Qaarsut Airport,Uummannaq,Greenland,BGUQ,2,36,35
321,64.838302612305,11.14610004425,"Rørvik Airport, Ryum",Rørvik,Norway,ENRM,2,35,63
163,22.8115005493,5.45107984543,Aguenar – Hadj Bey Akhamok Airport,Tamanrasset,Algeria,DAAT,5,34,49
1910,62.78609848,-164.4909973,Emmonak Airport,Emmonak,United States,PAEM,2,31,25
1626,-2.9201900959014893,132.26699829101562,Fakfak Airport,Fak Fak,Indonesia,WASF,2,31,55
1025,-16.0797,167.401001,Norsup Airport,Norsup,Vanuatu,NVSP,5,31,4
1725,-37.7281,144.901993,Melbourne Essendon Airport,Melbourne,Australia,YMEN,2,30,27
24,70.6804279261,-52.1116304398,Uummannaq Heliport,Uummannaq,Greenland,BGUM,1,30,35
42,64.29889678960001,-96.077796936,Baker Lake Airport,Baker Lake,Canada,CYBK,2,29,24
1729,-20.66830062866211,141.72300720214844,Julia Creek Airport,Julia Creek,Australia,YJLC,2,29,26
380,-19.97260093688965,23.43110084533692,Maun Airport,Maun,Botswana,FBMN,3,28,74
2593,-3.6445200443267822,133.6959991455078,Kaimana Airport,Kaimana,Indonesia,WASK,3,27,55
226,68.607299804688,27.405300140381,Ivalo Airport,Ivalo,Finland,EFIV,2,27,50
2094,67.700996398926,24.846799850464,Kittilä Airport,Kittila,Finland,EFKT,2,27,50
551,39.2966003418,-80.2281036377,North Central West Virginia Airport,Clarksburg,United States,KCKB,3,27,45
318,64.472198486328,11.57859992981,Namsos Høknesøra Airport,Namsos,Norway,ENNM,2,26,63
2268,40.79940032958984,-74.41490173339844,Morristown Municipal Airport,Morristown,United States,KMMU,1,26,68
1901,-13.2383003235,-176.199005127,Hihifo Airport,Wallis,Wallis and Futuna,NLWW,3,26,23
122,70.76280212402344,-117.80599975585938,Ulukhaktok Holman Airport,Holman Island,Canada,CYHI,3,25,67
71,49.831699,-92.744202,Dryden Regional Airport,Dryden,Canada,CYHD,2,25,51
2659,52.22639846801758,-78.52249908447266,Eastmain River Airport,Eastmain River,Canada,CZEM,2,25,33
1191,8.720120429992676,167.73199462890625,Bucholz Army Air Field,Kwajalein,Marshall Islands,PKWA,3,24,59
2145,-22.018400192260746,35.31330108642578,Vilankulo Airport,Vilankulu,Mozambique,FQVL,2,24,46
315,71.02970123291,27.826700210571,Mehamn Airport,Mehamn,Norway,ENMH,5,24,48
2160,1.73324,40.091599,Wajir Airport,Wajir,Kenya,HKWJ,1,24,43
2016,-9.35167,-140.078003,Ua Pou Airport,Ua Pou,French Polynesia,NTMP,2,24,53
470,-2.252419948577881,40.91310119628906,Manda Airstrip,Lamu,Kenya,HKLU,1,23,41
1913,62.95289993,-155.6060028,McGrath Airport,Mcgrath,United States,PAMC,3,23,21
2335,-19.45509910583496,169.2239990234375,Tanna Airport,Tanna,Vanuatu,NVVW,4,23,7
2622,-38.31809997558594,141.4709930419922,Portland Airport,Portland,Australia,YPOD,1,22,27
312,71.009696960449,25.983600616455,Valan Airport,Honningsvag,Norway,ENHV,2,22,48
28,54.9105,-59.78507,Postville Airport,Postville,Canada,CCD4,3,21,22
2623,-10.450599670410156,105.69000244140624,Christmas Island Airport,Christmas Island,Christmas Island,YPXM,2,21,19
1728,-26.612199783325195,144.2530059814453,Quilpie Airport,Quilpie,Australia,YQLP,2,21,31
1670,-25.897499084472656,139.34800720214844,Birdsville Airport,Birdsville,Australia,YBDV,2,21,31
1673,-24.346099853515625,139.4600067138672,Bedourie Airport,Bedourie,Australia,YBIE,2,21,31
1163,64.729301,-158.074005,Nulato Airport,Nulato,United States,PANU,3,21,52
1861,53.01060104370117,-78.83110046386719,Wemindji Airport,Wemindji,Canada,CYNC,2,20,33
242,59.1553001404,-2.64139008522,Stronsay Airport,Stronsay,United Kingdom,EGER,2,20,32
243,59.250301361083984,-2.576669931411743,Sanday Airport,Sanday,United Kingdom,EGES,3,20,32
2377,55.11629867553711,-162.26600646972656,King Cove Airport,King Cove,United States,PAVC,1,20,58
2624,-25.41309928894043,142.66700744628906,Windorah Airport,Windorah,Australia,YWDH,2,19,31
97,49.83639907836914,-64.2885971069336,Port Menier Airport,Port Menier,Canada,CYPN,2,19,28
1664,-23.5652999878,145.307006836,Barcaldine Airport,Barcaldine,Australia,YBAR,2,19,76
2615,-22.913299560546875,139.89999389648438,Boulia Airport,Boulia,Australia,YBOU,2,19,31
1936,-17.748600006103516,139.53399658203125,Burketown Airport,Burketown,Australia,YBKT,2,18,62
2685,5.35698,162.957993,Kosrae International Airport,Kosrae,Micronesia,PTSA,2,18,59
1900,22.379499,-73.013494,Mayaguana Airport,Mayaguana,Bahamas,MYMM,2,18,54
1169,68.1147,-145.578995,Arctic Village Airport,Arctic Village,United States,PARC,1,18,39
1,-6.711944,156.396111,Choiseul Bay Airport,Choiseul Bay,Solomon Islands,AGGC,2,17,72
353,64.54830169677734,18.71619987487793,Lycksele Airport,Lycksele,Sweden,ESNL,2,16,17
2036,71.9938964844,-125.242996216,Sachs Harbour (David Nasogaluak Jr. Saaryuaq) Airport,Sachs Harbour,Canada,CYSY,2,16,67
1124,65.9815979004,-161.149002075,Buckland Airport,Buckland,United States,PABL,2,16,38
1012,-14.3114004135,-178.065994263,Pointe Vele Airport,Futuna Island,Wallis and Futuna,NLWF,1,16,23
2402,64.8760986328,-157.727005005,Koyukuk Airport,Koyukuk,United States,PFKU,3,15,52
469,0.9719889760017396,34.95859909057617,Kitale Airport,Kitale,Kenya,HKKT,1,14,43
1171,62.095401763916016,-163.6820068359375,Mountain Village Airport,Mountain Village,United States,PAMO,1,14,57
359,64.5791015625,16.833599090576172,Vilhelmina Airport,Vilhelmina,Sweden,ESNV,2,13,13
1145,62.18830108642578,-159.77499389648438,Holy Cross Airport,Holy Cross,United States,PAHC,2,13,14
15,-6.36332988739,143.238006592,Moro Airport,Moro,Papua New Guinea,AYMR,2,13,40
701,36.92610168,-111.447998,Page Municipal Airport,Page,United States,KPGA,3,13,15
1132,66.0696029663,-162.76600647,Deering Airport,Deering,United States,PADE,2,12,38
1128,65.57379913,-144.7830048,Central Airport,Central,United States,PACE,2,12,20
1960,20.9330997467041,-17.030000686645508,Nouadhibou International Airport,Nouadhibou,Mauritania,GQPP,2,12,11
2680,-8.93611,-139.552002,Ua Huka Airport,Ua Huka,French Polynesia,NTMU,2,12,53
1130,65.830498,-144.076008,Circle City /New/ Airport,Circle,United States,PACR,2,12,20
1854,-9.86054358262,161.979546547,Ulawa Airport,Ulawa,Solomon Islands,AGAR,2,12,37
2000,-28.030000686645508,145.6219940185547,Cunnamulla Airport,Cunnamulla,Australia,YCMU,2,12,12
410,-23.876399993896484,35.40850067138672,Inhambane Airport,Inhambane,Mozambique,FQIN,2,12,46
453,5.93513011932,43.5786018372,Gode Airport,Gode,Ethiopia,HAGO,1,12,71
1950,-10.4497003555,161.897994995,Ngorangora Airport,Kirakira,Solomon Islands,AGGK,3,12,37
2625,-20.70190048217773,143.11500549316406,Richmond Airport,Richmond,Australia,YRMD,1,12,26
1899,20.975000381469727,-73.66690063476562,Inagua Airport,Matthew Town,Bahamas,MYIG,2,11,54
1379,6.951868,-71.857179,Los Colonizadores Airport,Saravena,Colombia,SKSA,2,11,56
2332,-23.36540031433105,-149.5240020751953,Tubuai Airport,Tubuai,French Polynesia,NTAT,2,11,65
1953,55.07690048217773,-59.1864013671875,Makkovik Airport,Makkovik,Canada,CYFT,2,10,22
1862,49.78829956054688,-94.36309814453124,Kenora Airport,Kenora,Canada,CYQK,2,10,51
379,-17.83289909362793,25.162399291992188,Kasane Airport,Kasane,Botswana,FBKE,2,10,74
2301,35.4213981628,26.9099998474,Kasos Airport,Kasos,Greece,LGKS,1,10,47
2027,55.44829940795898,-60.22859954833984,Hopedale Airport,Hopedale,Canada,CYHO,2,10,22
584,33.22100067138672,-92.81330108642578,South Arkansas Regional At Goodwin Field,El Dorado,United States,KELD,3,10,10
67,50.28189849853516,-63.61140060424805,Havre St Pierre Airport,Havre-Saint-Pierre,Canada,CYGV,2,9,28
2021,-5.84499979019,142.947998047,Tari Airport,Tari,Papua New Guinea,AYTA,2,9,40
422,-28.5847,16.446699,Oranjemund Airport,Oranjemund,Namibia,FYOG,2,8,16
1874,-1.332,31.8212,Bukoba Airport,Bukoba,Tanzania,HTBU,1,8,73
2682,54.8474006652832,-163.41000366210938,False Pass Airport,False Pass,United States,PAKF,1,8,58
2509,6.45108,-71.7603,Gustavo Vargas Airport,Tame,Colombia,SKTM,2,8,56
2129,65.59030151367188,19.28190040588379,Arvidsjaur Airport,Arvidsjaur,Sweden,ESNX,1,8,17
601,35.95240020751953,-112.14700317382812,Grand Canyon National Park Airport,Grand Canyon,United States,KGCN,1,8,15
2030,54.98809814453125,-85.44329833984375,Peawanuck Airport,Peawanuck,Canada,CYPO,1,7,36
116,51.81969833374024,-93.97329711914062,Pikangikum Airport,Pikangikum,Canada,CYPM,2,7,30
1941,-28.049699783325195,148.59500122070312,St George Airport,St George,Australia,YSGE,2,7,12
32,50.1958007812,-61.2658004761,Kegaska Airport,Kegaska,Canada,CTK6,1,7,42
1939,-12.1883001328,96.8339004517,Cocos (Keeling) Islands Airport,Cocos Keeling Island,Cocos (Keeling) Islands,YPCC,1,7,19
1866,30.5713005065918,2.8595900535583496,El Golea Airport,El Golea,Algeria,DAUE,2,6,49
2724,-18.074800491333008,-140.9459991455078,Hao Airport,Hao Island,French Polynesia,NTTO,3,6,9
2387,62.646702,-160.190994,Anvik Airport,Anvik,United States,PANV,1,6,14
421,-26.687400817871094,15.242899894714355,Luderitz Airport,Luderitz,Namibia,FYLZ,2,6,16
1302,-19.85120010375977,-43.95059967041016,Pampulha - Carlos Drummond de Andrade Airport,Belo Horizonte,Brazil,SBBH,3,6,8
1031,-18.856389,169.283333,Ipota Airport,Ipota,Vanuatu,NVVI,3,6,7
2726,-27.986400604248047,143.81100463867188,Thargomindah Airport,Thargomindah,Australia,YTGM,1,6,12
2705,22.75639915466309,-12.483599662780762,Tazadit Airport,Zouerat,Mauritania,GQPZ,1,6,11
2723,-14.45580005645752,-145.02499389648438,Takaroa Airport,Takaroa,French Polynesia,NTKR,2,6,6
2136,-0.7117390036582947,8.754380226135254,Port Gentil Airport,Port Gentil,Gabon,FOOG,1,6,69
1968,22.7455997467,-74.1824035645,Colonel Hill Airport,Colonel Hill,Bahamas,MYCI,2,6,29
666,34.47800064086914,-93.09619903564452,Memorial Field,Hot Springs,United States,KHOT,2,5,10
2130,65.80609893798828,15.082799911499023,Hemavan Airport,Hemavan,Sweden,ESUT,1,5,13
1160,60.69029998779297,-161.97900390625,Napakiak Airport,Napakiak,United States,PANA,2,5,18
2671,39.64289856,-79.91629791,Morgantown Municipal Walter L. Bill Hart Field,Morgantown,United States,KMGW,2,5,45
2047,52.9593933975,-87.3748683929,Webequie Airport,Webequie,Canada,CYWP,2,5,5
2699,-10.847994,162.454108,Santa Ana Airport,Santa Ana,Solomon Islands,AGGT,2,4,37
2669,-0.06239889934659,37.04100799560547,Nanyuki Airport,Nanyuki,Kenya,HKNY,1,4,43
1908,-16.264999,167.923996,Craig Cove Airport,Craig Cove,Vanuatu,NVSF,3,4,4
1022,-16.4611228,167.829253,Lamap Airport,Lamap,Vanuatu,NVSL,2,4,4
1027,-19.2346,169.6009,Aniwa Airport,Aniwa,Vanuatu,NVVB,2,4,7
1028,-18.7693996429,169.00100708,Dillon's Bay Airport,Dillon's Bay,Vanuatu,NVVD,2,4,7
1030,-19.5163993835,170.231994629,Futuna Airport,Futuna Island,Vanuatu,NVVF,2,4,7
1967,22.441799163800003,-73.97090148930002,Spring Point Airport,Spring Point,Bahamas,MYAP,2,4,29
1997,-16.583900451660156,-143.6580047607422,Makemo Airport,Makemo,French Polynesia,NTGM,2,4,9
2009,-22.43409919738769,-151.36099243164062,Rurutu Airport,Rurutu,French Polynesia,NTAR,2,4,65
2365,31.35840034484864,69.4636001586914,Zhob Airport,Zhob,Pakistan,OPZB,1,4,70
2701,64.1932983398,-83.3593978882,Coral Harbour Airport,Coral Harbour,Canada,CYZS,2,3,3
2010,-16.4864,167.4472,Southwest Bay Airport,Malekula Island,Vanuatu,NVSX,2,3,4
2668,35.594299316406,-5.320020198822,Saniat R'mel Airport,Tetouan,Morocco,GMTN,2,3,1
1139,63.0186,-154.358002,Nikolai Airport,Nikolai,United States,PAFS,1,3,21
2398,60.70289993,-161.7779999,Napaskiak Airport,Napaskiak,United States,PAPK,2,3,18
391,-10.216699600219728,31.13330078125,Kasama Airport,Kasama,Zambia,FLKS,1,3,64
2484,-23.22920036315918,-45.86149978637695,Professor Urbano Ernesto Stumpf Airport,Sao Jose Dos Campos,Brazil,SBSJ,2,3,8
2017,-23.07990074157715,-134.88999938964844,Totegegie Airport,Totegegie,French Polynesia,NTGJ,2,3,9
137,52.19559860229492,-87.93419647216797,Lansdowne House Airport,Lansdowne House,Canada,CYLH,1,3,5
1975,24.428300857543945,54.458099365234375,Bateen Airport,Abu Dhabi,United Arab Emirates,OMAD,2,3,2
2690,-0.182278,-74.7708,Caucaya Airport,Puerto Leguízamo,Colombia,SKLG,1,2,44
1977,-1.32861,-69.5797,La Pedrera Airport,La Pedrera,Colombia,SKLP,1,2,34
1996,-14.709500312805176,-145.24600219726562,Takapoto Airport,Takapoto,French Polynesia,NTGT,1,2,6
2727,66.5214004517,-86.22470092770001,Repulse Bay Airport,Repulse Bay,Canada,CYUT,1,2,24
2076,28.0515,9.64291,In Aménas Airport,Zarzaitine,Algeria,DAUZ,1,2,66
2725,25.112199783325195,56.32400131225586,Fujairah International Airport,Fujeirah,United Arab Emirates,OMFJ,1,2,2
1952,63.3469009399,-90.7311019897,Chesterfield Inlet Airport,Chesterfield Inlet,Canada,CYCS,1,2,3
1021,-15.3066997528,167.966995239,Longana Airport,Longana,Vanuatu,NVSG,1,2,77
1024,-15.0,168.082992554,Maewo-Naone Airport,Maewo Island,Vanuatu,NVSN,1,2,77
2683,62.6800422668,-164.659927368,Alakanuk Airport,Alakanuk,United States,PAUK,1,1,25
1988,35.177101135253906,-3.83951997756958,Cherif Al Idrissi Airport,Al Hociema,Morocco,GMTA,1,1,1
1858,52.1133,-94.2556,Poplar Hill Airport,Poplar Hill,Canada,CPV7,1,1,30
2710,-16.3297,168.3011,Uléi Airport,Ambryn Island,Vanuatu,NVSU,1,1,4
2729,6.78082990646,47.45470047,Galcaio Airport,Galcaio,Somalia,HCMR,1,1,61
